_id,ltable_business_id,rtable_id,ltable_name,ltable_address,ltable_address_num,ltable_postal_code,ltable_latitude,ltable_longitude,rtable_name,rtable_address,rtable_address_num,rtable_zipcode,rtable_latitude,rtable_longitude,gold_labels
29755,z04viA7AsFfzwT7ABwRLHg,17502743,chipotle mexican grill,4000 University Ave,4000.0,53705.0,43.0758066424,-89.4538423332,vintage spirits & grill,"529 University Ave, Madison, WI 53703",529.0,53703.0,43.0731,-89.3946,0
33658,zv7ApWWtKbu1r_qNK4SFrg,17502844,gino's italian deli,6509 Century Ave,6509.0,53562.0,43.1038884255,-89.4917572933,gino's italian deli,"6509 Century Ave, Middleton, WI 53562",6509.0,53562.0,43.103753,-89.491732,1
52192,uXZ4Of7CV77SmKIjya3y_A,17503445,varsity bar & grill,1205 W Main St,1205.0,53590.0,43.1797865,-89.233109,1855 saloon & grill,"218 S. Main St, Cottage Grove, WI 53527",218.0,53527.0,43.076105,-89.199537,0
46604,uXZ4Of7CV77SmKIjya3y_A,17503251,varsity bar & grill,1205 W Main St,1205.0,53590.0,43.1797865,-89.233109,canopy bar,"1212 Main St, Waterloo, WI 53594",1212.0,53594.0,43.1978,-88.9747,0
8339,NiBzh0kHusvH5rdnpm7yVw,17501878,bandung indonesian restaurant,"600 Williamson St, Ste M",600.0,53703.0,43.076604,-89.3745656,el mariachi mexican restaurant llc,"102 E Madison St Ste B, Lake Mills, WI 53551",102.0,53551.0,43.0814,-88.9114,0
30739,bjgffjRaxLvgh9CJq1xxVg,17502767,blue spoon cafe,"2831 Parmenter St, Ste 140",2831.0,53562.0,43.1054335,-89.5106336,zuzu cafe,"1336 Drake St, Madison, WI 53715",1336.0,53715.0,43.0622,-89.4084,0
70247,BwWbwhIWfc9A0fPShp-WmA,17504114,oliver's public house,2540 University Ave,2540.0,53705.0,43.0725542026,-89.4300975757,oliver's public house,"2540 University Ave, Madison, WI 53705",2540.0,53705.0,43.0724609,-89.4301567,1
15801,mzq_UgBRWsxTjb7oBNajWA,17502235,great dane pub & brewing,357 Price Pl,357.0,53705.0,43.0711419,-89.4523269,great dane pub & brewery,"357 Price Pl, Madison, WI 53705",357.0,53705.0,43.0705,-89.4522,1
59705,NMXig2HCB_sa0E1OCZj-KA,17503737,elie's family restaurant and banquet,4102 Monona Dr,4102.0,53716.0,43.079131,-89.323261,elie's family restaurant,"4102 Monona Dr., Monona, WI 53716",4102.0,53716.0,43.0787676,-89.3245434,1
9997,9BeOKr8DGzDEmdoe-FzQbg,17501965,kennedy manor dining room & bar,"1 Langdon St, Ste 103",1.0,53703.0,43.07836,-89.3897099,badgerland bar & grill,"525 W Johnson St, Madison, WI 53703",525.0,53703.0,43.0719,-89.3944,0
41004,h98IJqWW0wVxwoLV03Azfw,17503036,mod pizza,"2960 Cahill Main, Ste 103",2960.0,53711.0,43.0169302,-89.4228617,pizza hut,"954 Janesville St Ste 3, Oregon, WI 53575",954.0,53575.0,42.918,-89.3726,0
76823,qaa9M_pUfOv0BPRcnulk4g,18415940,buraka restaurant,1210 Williamson Street,1210.0,53703.0,43.0836473,-89.3642491,buraka,"1210 Williamson Street, Madison, WI 53703",1210.0,53703.0,43.083529,-89.364185,1
52616,kEdCejKhN7n8DZJriHKBlA,17503463,sunrise family restaurant,1052 W Main St,1052.0,53589.0,42.917425,-89.232736,sunrise family restaurant,"1052 W Main St, Stoughton, WI 53589",1052.0,53589.0,42.917101,-89.232578,1
30192,gT-BU_GVKDsYAFSxkbZm_g,17502755,bon appetit cafe,805 Williamson St,805.0,53703.0,43.0782462,-89.3710925,willalby's cafe,"1351 Williamson St, Madison, WI 53703",1351.0,53703.0,43.085,-89.3615,0
30947,WvuBDIZTmQGfoTAgW-pNPw,17502772,hop's house eatery & pub,209 E Main St,209.0,53572.0,43.0083371,-89.7377101,marshall pub,"137 E Main St, Marshall, WI 53559",137.0,53559.0,43.1672,-89.063,0
61597,pOP4-a9Nf_UtwXfUqIiWng,17503807,main street kitchen,334 E Main St,334.0,53589.0,42.9170047,-89.2173638,holstein kitchen,"101 South Main Street, WI 53575",101.0,53575.0,42.8588908,-89.3679929,0
11213,wjGIbeYiciz3ynYIEWCRHQ,17502018,bruegger's bagels,6150 Mineral Point Rd,6150.0,53705.0,43.061218,-89.486019,bruegger's bagels,"6150 Mineral Pt Rd, Madison, WI 53705",6150.0,53705.0,43.0609,-89.4861,1
4828,9BeOKr8DGzDEmdoe-FzQbg,17501757,kennedy manor dining room & bar,"1 Langdon St, Ste 103",1.0,53703.0,43.07836,-89.3897099,cj's bar,"538 S Main St, Fall River, WI 53932",538.0,53932.0,43.3823,-89.0554,0
22747,Ffd7S8tVzeY_MgsrZtW7kw,17502483,papa jimmy's pizzeria,224 W Cottage Grove Rd,224.0,53527.0,43.0864166,-89.2040296,papa murphy's pizza,"4664 Cottage Grove Rd, Madison, WI 53716",4664.0,53716.0,43.0843,-89.3017,0
21118,Xu6mEU7IbKlWic1ETgUOeA,17502438,nadia's restaurant & grapevine lounge,508 State St,508.0,53703.0,43.0751832,-89.3936346,nick's restaurant,"226 State St, Madison, WI 53703",226.0,53703.0,43.0749,-89.3886,0
45356,kEdCejKhN7n8DZJriHKBlA,17503219,sunrise family restaurant,1052 W Main St,1052.0,53589.0,42.917425,-89.232736,avanti italian restaurant,"119 S Main St, Verona, WI 53593",119.0,53593.0,42.9897105,-89.5333546,0
75472,8Rydf8hXleCwbCN9nvmZ4Q,18201214,chipotle mexican grill,658 State St,658.0,53703.0,43.0749023,-89.3967531,naf naf grill,"555 State Street, Madison",555.0,,43.0748190442,-89.394893262,0
15110,q9m74q6V7mNQyeCAa9UD8A,17502188,zoe's pizzeria,"806 S Division St, Ste A",806.0,53597.0,43.185123,-89.446485,falbo bros. pizzeria,"406 S Park St, Madison, WI 53715",406.0,53715.0,43.0733,-89.3969,0
34887,n5BPR_prEPB4B3lxUpoX4g,17502869,papa john's pizza,515 University Ave,515.0,53703.0,43.072826,-89.394966,pizza hut,"6771 University Ave Ste 101, Middleton, WI 53562",6771.0,53562.0,43.0969,-89.4985,0
38649,xIYTia1c4IUFxIQlBItasA,17502991,aztlan mexican grill,407 W Main St,407.0,53572.0,43.007059,-89.746169,main street pub & grill,"120 E Main St, Mount Horeb, WI 53572",120.0,53572.0,43.0087,-89.7393,0
51550,P3Nl2QTfUtoe8-alSSh-9w,17503420,silver mine subs,"2601 W Beltline Hwy, Ste 106",2601.0,53713.0,43.0345363,-89.4221744,silver mine subs,"2601 W Beltline Hwy #106, Madison, WI 53713",2601.0,53713.0,43.034786,-89.42118,1
71190,eJYvivWUp4Hdc9Tc8SaZPA,17797194,buraka restaurant,543 State St,543.0,53703.0,43.0748002,-89.3952993,608 restaurant and bar,"212 State St, Madison, WI 53703",212.0,53703.0,43.0747764,-89.3886148,0
62614,M25NgFDHrozQn4MhIsEpRw,17503832,bistro 101,"101 E Main St, Ste 150",101.0,53572.0,43.008397,-89.739315,dhaba indian bistro,"8333 Greenway Blvd, Ste 100, Middleton, WI 53562",8333.0,53562.0,43.0895299,-89.5256157,0
75539,_omjGkkkddnKVWG3Uua9Kw,18260471,five guys burgers and fries,8234 Greenway Blvd,8234.0,53562.0,43.0902166,-89.522219,five guys,"8234 Greenway Boulevard, Middletown, WI 53562",8234.0,53562.0,43.09,-89.52,1
28763,KAhavksKQwKbMzZHiNOyOQ,17502686,gino's restaurant,540 State St,540.0,53703.0,43.075131,-89.394445,takara japanese restaurant,"315 State St, Madison, WI 53703",315.0,53703.0,43.0747,-89.3904,0
63822,VYpXvGPkx2k0lZlGry3HQw,17503895,coach's club,1200 Main St,1200.0,53528.0,43.1142288,-89.6586593,harry's supper club,"109 W. Main St., Sun Prairie, WI 53590",109.0,53590.0,43.1831869,-89.2140792,0
3169,OKGfGPx3AJOw6ohrIXM-yg,17501683,tano's pizza,1910 Main St,1910.0,53528.0,43.1134229,-89.6499951,pizza hut,"633 S Main St, De Forest, WI 53532",633.0,53532.0,43.2414,-89.3435,0
8617,KAhavksKQwKbMzZHiNOyOQ,17501884,gino's restaurant,540 State St,540.0,53703.0,43.075131,-89.394445,lake oasis family restaurant,"N6947 State Rd 89, Lake Mills, WI 53551",6947.0,53551.0,43.0976,-88.908,0
57468,sWWMidrpQmXOhCTrs6xAZg,17503655,olive lounge,"Hilton Madison Lobby, 9 E Wilson St",9.0,53703.0,43.0726193,-89.3805114,olive,"9 E. Wilson.St, Madison, WI 53703",9.0,53703.0,43.07258,-89.380972,1
67662,0qh5uSAUDcVzC6hoPsAPvA,17504031,chick-fil-a,430 S Gammon Rd,430.0,53719.0,43.058073,-89.503443,chick-fil-a,"423 S Gammon Rd, Madison, WI 53719",423.0,53719.0,43.0592095,-89.5027004,1
66321,4DtGWbPfvfIL7czgBLPcXw,17503969,toppers pizza,7850 Mineral Point Rd,7850.0,53717.0,43.0609838524,-89.5187764987,topper's pizza,"7850 Mineral Point Road, Madison, WI 53717",7850.0,53717.0,43.060584,-89.519354,1
70797,qLYNdv7bgA7OOOKTxu0giA,17686623,good food,33 E Main St,33.0,53703.0,43.0740986906,-89.3828237057,good times log cabin,"307 Main St, Hollandale, WI 53544",307.0,53544.0,42.8769,-89.9346,0
55394,bt0ZUJWmAJhjYmfPCzgRmQ,17503570,sol azteca fusion grill,1821 S Park St,1821.0,53713.0,43.0470342,-89.3939631,qdoba mexican grill,"2 N. Park St., Madison, WI 53715",2.0,53715.0,43.067752,-89.401156,0
19728,-9CvNuJ35elp7YwIy4xHDw,17502390,jakarta cafe,700 Block State St Library Mall,700.0,53703.0,43.0730517,-89.4012302,mediterranean cafe,"625 State St, Madison, WI 53703",625.0,53703.0,43.0747,-89.3959,0
59019,Bx8cfQJpZvKNA4TWPFWDJQ,17503721,tuscany mediterranean grill,2969 Cahill Main,2969.0,53711.0,43.0165752,-89.4242797,the rigby pub & grill,"119 E Main St, Madison, WI 53703",119.0,53703.0,43.0750283,-89.3811811,0
28773,I0R4EIBhG1_-vKxOKiIbfQ,17502686,608 restaurant and bar,212 State St,212.0,53703.0,43.0747764,-89.3886148,takara japanese restaurant,"315 State St, Madison, WI 53703",315.0,53703.0,43.0747,-89.3904,0
20850,Ib2-QQytp9eqwaOgY_zeYw,17502436,new orleans take-out,1920 Fordem Ave,1920.0,53704.0,43.0984345318,-89.3644666672,new orleans take out restaurant,"1920 Fordem Ave, Madison, WI 53704",1920.0,53704.0,43.098,-89.3643,1
13189,V_2YX2rW_l5N3UwwifokCQ,17502120,olive garden italian restaurant,7017 Mineral Point Rd,7017.0,53717.0,43.0602878766,-89.5044983736,cranberry creek restaurant & catering,"1501 Lake Point Dr, Madison, WI 53713",1501.0,53713.0,43.0481,-89.3397,0
57030,cgoS2M0ghmdAQM1fvf-I9Q,17503639,steenbock's on orchard,330 N Orchard St,330.0,53715.0,43.0726376921,-89.407396093,steenbock's on orchard,"330 N. Orchard St., Madison, WI 53715",330.0,53715.0,43.072994,-89.40749,1
10745,MSrcYJoM9cNLS9-wfTZX3w,17501999,highland corner grill,"Best Western Plus InnTowner & Highland Club, 2424 University Ave",2424.0,53726.0,43.072493,-89.42778,blue moon bar & grill,"2535 University Ave, Madison, WI 53705",2535.0,53705.0,43.0722,-89.4296,0
54822,lMeWUHAkBUXwcuX1tGTdtw,17503544,eagle crest bar,3710 County Rd T,3710.0,53704.0,43.1070277512,-89.2873446108,aztalan inn bar & grill,"W6630 County Road B, Lake Mills, WI 53551",6630.0,53551.0,43.073004,-88.862005,0
54455,Y9Lsu_1dVNarV2wt1t5Cgw,17503536,growlers bar & grille,"Crowne Plaza Madison, 4402 E Washington Ave",4402.0,53704.0,43.1275033,-89.3094196,concourse hotel bar,"1 W. Dayton St., Madison, WI 53703",1.0,53703.0,43.07602,-89.386162,0
75600,E3zvCzX7gquT9srY4pUwLg,18275522,el rancho mexican grill,819 S Park St,819.0,53715.0,43.0588605,-89.4000633,el rancho mexican grill,"819 S Park Street, Madison, WI 53715",819.0,53715.0,43.058864,-89.400064,1
72632,IXXERocY1bqGwRllcy8J2w,17797222,sophia's bakery & cafe,"831 E Johnson St, Ste 4",831.0,53703.0,43.0838052,-89.3768109,new glarus bakery,"534 1st St, New Glarus, WI 53574",534.0,53574.0,42.81488,-89.633532,0
44377,z8MnefVbAKcIGN7BwDullA,17503199,domino's pizza,1585 W Main St,1585.0,53590.0,43.1778773,-89.2398226,pizza pit,"330 W Main St, Sun Prairie, WI 53590",330.0,53590.0,43.1834,-89.2179,0
67744,DhMshA4a0t5wlOq7u0RiMw,17504041,subway,7011 Watts Rd,7011.0,53719.0,43.0498188,-89.5042226,subway,"7202 Watts Rd, Madison, WI 53719",7202.0,53719.0,43.0506,-89.5081,1
65751,xIYTia1c4IUFxIQlBItasA,17503959,aztlan mexican grill,407 W Main St,407.0,53572.0,43.007059,-89.746169,aztlan mexican grill,"407 W Main St, Mount Horeb, WI 53572",407.0,53572.0,43.007059,-89.746169,1
19680,tTjXkqN-XVLIP3Vk9EozJg,17502390,palmyra mediterranean grill,419 State St,419.0,53703.0,43.0748105,-89.3925202,mediterranean cafe,"625 State St, Madison, WI 53703",625.0,53703.0,43.0747,-89.3959,0
36959,p2RqycIW2jzjbQnkEw5lkA,17502954,noodles & company,6520 Monona Dr At Pier 37,6520.0,53716.0,43.047024,-89.3238721,noodles & company,"6520 Monona Dr, Monona, WI 53716",6520.0,53716.0,43.047,-89.3244,1
36567,M0pXDKKvnM5sc7ceisBD4Q,17502939,edo garden monona,6309 Monona Dr,6309.0,53716.0,43.0496297,-89.3255852,edo garden,"6309 Monona Dr, Monona, WI 53716",6309.0,53716.0,43.0496,-89.3251,1
37983,HOCeog5qhTFVTJnHldF8kw,17502981,fink's cafe,204 W Main St,204.0,53572.0,43.008818,-89.740633,m & m cafe,"126 N Main St, Monticello, WI 53570",126.0,53570.0,42.745,-89.5942,0
28759,tSzIHI6ioblP1WEQAQNbhw,17502686,wasabi japanese restaurant & sushi bar,449 State St,449.0,53703.0,43.0745126,-89.3933663,takara japanese restaurant,"315 State St, Madison, WI 53703",315.0,53703.0,43.0747,-89.3904,0
46247,wPRMHVXKndQZj2Or2mCz8A,17503239,harmony bar & grill,2201 Atwood Ave,2201.0,53704.0,43.093003,-89.349182,monte's grill & pub,"608 W Verona Ave Ste A, Verona, WI 53593",608.0,53593.0,42.9885,-89.5461,0
13024,V5K2K2U0JaBL5UPaZYJkSQ,17502120,el burrito loco restaurant,745 N High Point Rd,745.0,53717.0,43.0760775,-89.5184744,cranberry creek restaurant & catering,"1501 Lake Point Dr, Madison, WI 53713",1501.0,53713.0,43.0481,-89.3397,0
41113,6nLuU3av6aQiLVXHNWLbew,17503037,sugar river pizza,"1019 River St, Ste 5",1019.0,53508.0,42.8753193,-89.5329802,pizza pit,"130 N Main St, Oregon, WI 53575",130.0,53575.0,42.9272,-89.3839,0
33509,4Pn83EWDr16n6kU1O6u42g,17502836,cousins subs,8430 Old Sauk Rd,8430.0,53562.0,43.0798741425,-89.563016,cousins subs,"8430 Old Sauk Rd, Middleton, WI 53562",8430.0,53562.0,43.0748,-89.5382,1
67825,h98IJqWW0wVxwoLV03Azfw,17504045,mod pizza,"2960 Cahill Main, Ste 103",2960.0,53711.0,43.0169302,-89.4228617,little caesars pizza,"1326 W Main, Sun Prairie, WI 53590",1326.0,53590.0,43.1793386,-89.2362063,0
2165,0jy1V32K1F_7bM8mu3nK5w,17501650,main street pub & grill,120 E Main St,120.0,53572.0,43.0086740632,-89.7376195907,kurt's on main,"1902 Main St, Cross Plains, WI 53528",1902.0,53528.0,43.1136,-89.6504,0
46257,ot_dtez-8ngRgH0h2G24Gg,17503239,monte's grill & pub,608A W Verona Ave,608.0,53593.0,42.9887143,-89.5466119,monte's grill & pub,"608 W Verona Ave Ste A, Verona, WI 53593",608.0,53593.0,42.9885,-89.5461,1
37897,RRH8jkTF8K2vPDgr0hNGkg,17502979,ski's saloon,100 W Main St,100.0,53590.0,43.183498,-89.213809,eagle pass saloon,"212 N Main St, Monticello, WI 53570",212.0,53570.0,42.7475,-89.5942,0
38514,84WYW7OfV-IXUJk95EL5_Q,17502991,samba brazilian grill,"240 W Gilman St, Fl 2",240.0,53703.0,43.07546,-89.393063,main street pub & grill,"120 E Main St, Mount Horeb, WI 53572",120.0,53572.0,43.0087,-89.7393,0
19407,TBh4lRgZayACZKK02suaSQ,17502372,martin o'grady irish pub & grill,7436 Mineral Point Rd,7436.0,53717.0,43.0612817,-89.511733,martin o'grady irish pub,"7436 Mineral Pt Rd, Madison, WI 53717",7436.0,53717.0,43.0607,-89.5112,1
21918,9urG14qwHtGRpQQUYY2y9A,17502461,original pancake house,5518 University Ave,5518.0,53705.0,43.0833692,-89.4759564,original pancake house,"5518 University Ave, Madison, WI 53705",5518.0,53705.0,43.0834,-89.4761,1
26808,EAk6sFd-fAEA8-4JgFhHhg,17502575,pizza oven,6016 Monona Dr,6016.0,53716.0,43.0537136,-89.3252316,rocky rococo pan style pizza,"4556 Monona Drive, Madison, WI 53716",4556.0,53716.0,43.071,-89.3259,0
65678,RCfpKRSP5o04gdzy7Vhnqw,17503959,jodi's bar and grill,1821 Main St,1821.0,53528.0,43.1140164634,-89.6505199,aztlan mexican grill,"407 W Main St, Mount Horeb, WI 53572",407.0,53572.0,43.007059,-89.746169,0
6547,Bx8cfQJpZvKNA4TWPFWDJQ,17501808,tuscany mediterranean grill,2969 Cahill Main,2969.0,53711.0,43.0165752,-89.4242797,tuscany mediterranean grill,"2969 Cahill Main, Fitchburg, WI 53711",2969.0,53711.0,43.0187,-89.423,1
620,1iS-pzwKiNF21UWHl9Rl5g,17501572,macchiatos coffee & wine bar,605 S Main St,605.0,53532.0,43.2416769,-89.3437155,j & m bar,"127 W Main St, Belleville, WI 53508",127.0,53508.0,42.8598,-89.5357,0
7818,7-OCdlOQQCHAqYDI_elK6Q,17501854,doughboys pizza,246 N Century Ave,246.0,53597.0,43.193692,-89.4612349,pizza villa,"109 Sherman Ave W, Fort Atkinson, WI 53538",109.0,53538.0,42.92956,-88.839345,0
52715,aUrOyWFKxKeVXiFzwbTXSA,17503468,the green owl,1970 Atwood Ave,1970.0,53704.0,43.0922989,-89.355528,the green owl cafe,"1970 Atwood Ave, Madison, WI 53704",1970.0,53704.0,43.092247,-89.35551,1
72953,15LjiMzeVbTpQgaFBWO32A,17797228,capriotti's sandwich shop,"902 Regent St, Ste B",902.0,53715.0,43.0678055207,-89.4014794248,saigon sandwich madison,"273 N Charter St, Madison, WI 53715",273.0,53715.0,43.0719819,-89.4057059,0
15955,wbia2cGn5pUSCZGLYTu0kw,17502239,portage pi cafe & juice bar,"Graduate Madison, 601 Langdon St",601.0,53703.0,43.075514,-89.395657,greenbush bar,"914 Regent St, Madison, WI 53715",914.0,53715.0,43.0678,-89.4013,0
64754,MkzaB1merlsrz92EMGQQkw,17503936,sunset grill of deforest,637 W North St,637.0,53532.0,43.2521577,-89.3586181,habanero's mexican grill,"3001 North Sherman Avenue, Madison, WI 53704",3001.0,53704.0,43.1297852,-89.363479,0
60134,xIYTia1c4IUFxIQlBItasA,17503760,aztlan mexican grill,407 W Main St,407.0,53572.0,43.007059,-89.746169,keystone grill,"206 W. Main St, Cambridge, WI 53523",206.0,53523.0,43.003998,-89.018774,0
76174,wbia2cGn5pUSCZGLYTu0kw,18353576,portage pi cafe & juice bar,"Graduate Madison, 601 Langdon St",601.0,53703.0,43.075514,-89.395657,cafe costa rica,"731 State Street, Madison, WI 53703",731.0,53703.0,43.074655,-89.39869,0
61305,uXZ4Of7CV77SmKIjya3y_A,17503795,varsity bar & grill,1205 W Main St,1205.0,53590.0,43.1797865,-89.233109,willie's restaurant and bar,"118 S Main St, Lodi, WI 53555",118.0,53555.0,43.3133562,-89.5263729,0
6073,_xcDTH9G4LDqADfpmok6SQ,17501793,pizza hut,2935 S Fish Hatchery Rd Ste 1,2935.0,53711.0,43.0144173,-89.4274219,pizza hut,"2935 S Fish Hatchery Rd, Fitchburg, WI 53711",2935.0,53711.0,43.0151,-89.4257,1
61314,IhZt04x4GehjOPhIfuecwA,17503796,harry's supper club,109 W Main St,109.0,53590.0,43.183212,-89.214073,mulligan's at lake mills golf club,"800 S Main St, Lake Mills, WI 53551",800.0,53551.0,43.0689211,-88.9136753,0
51803,3uwz62lHoUqKXDDbwErRfQ,17503436,copper top restaurant,5401 W Beltline Hwy,5401.0,53711.0,43.0454124232,-89.4739400204,black hawk family restaurant,"E11394 US Hwy 12, Sauk City, WI 53583",11394.0,53583.0,43.271075,-89.75453,0
38431,lTKfkTHuD0qRt6OaocI-pg,17502988,grumpy troll pub & brewery,105 S 2nd St,105.0,53572.0,43.008107,-89.738062,grumpy troll pub & brewery,"105 S 2nd St, Mt Horeb, WI 53572",105.0,53572.0,43.008057,-89.738343,1
76619,kWItkhjHRuzfC11CP1E0ZQ,18386686,lalo's mexican restaurant,5510 University Ave,5510.0,53705.0,43.0831080044,-89.4756475836,lalo's mexican restaurant,"5510 University Avenue, Madison, WI 53705",5510.0,53705.0,43.083086,-89.475491,1
29287,0k0G9h7uh8pqazW9DmfOBQ,17502714,pasta nuovo,"1900 Cayuga St, Ste 101",1900.0,53562.0,43.0959435,-89.5141841,tutto pasta trattoria,"305 State St, Madison, WI 53703",305.0,53703.0,43.0747,-89.3903,0
27325,KB25wVbL7Lk22tN72DR0ww,17502594,sarku japan,89 E Towne Mall,89.0,53704.0,43.1280801,-89.3043221,sarku japan,"89 E Towne Mall, Madison, WI 53704",89.0,53704.0,43.1225,-89.3042,1
19991,9BeOKr8DGzDEmdoe-FzQbg,17502401,kennedy manor dining room & bar,"1 Langdon St, Ste 103",1.0,53703.0,43.07836,-89.3897099,mickies dairy bar,"1511 Monroe St, Madison, WI 53711",1511.0,53711.0,43.0676,-89.4128,0
70254,20mdLT6sAriyKs9oNouDDA,17504115,the taco bros,604 E University Ave,604.0,53715.0,43.0733915441,-89.3961464946,taco bros,"604 University Ave, Madison, WI 53715",604.0,53715.0,43.0734428,-89.3960157,1
65299,pOP4-a9Nf_UtwXfUqIiWng,17503951,main street kitchen,334 E Main St,334.0,53589.0,42.9170047,-89.2173638,the dining room at 209 main,"209 North Main Street, Monticello, WI 53570",209.0,53570.0,42.747341,-89.594695,0
52957,hVzRXGGhRJfTXIasO3bq1w,17503470,mia za's italian cafe,515 State St,515.0,53703.0,43.074593,-89.394235,mia za's italian cafe,"515 State St, Madison, WI 53703",515.0,53703.0,43.074626,-89.394016,1
21040,mOzxFBAHWwpuH7u5xP0oHw,17502438,takara japanese restaurant,315 State St,315.0,53703.0,43.074663,-89.3907855,nick's restaurant,"226 State St, Madison, WI 53703",226.0,53703.0,43.0749,-89.3886,0
54032,1AbuJiCPu-mOJUPjQIpuLw,17503526,bar bistro 608 / rooftop bar,"Hilldale Mall, 430 N Midvale Blvd",430.0,53705.0,43.071195,-89.452743,bar bistro 608,"430 N Midvale Blvd, Madison, WI 53705",430.0,53705.0,43.070632,-89.451384,1
43424,5knOqCWniwFbDlznijP3bQ,17503137,little caesars pizza,1334 W Main St,1334.0,53590.0,43.1794029,-89.2363971,pizza pit,"1060 W Main St, Stoughton, WI 53589",1060.0,53589.0,42.9169,-89.2324,0
27877,fdX_eu-dCaKsDaK_itNIzQ,17502631,tutto pasta state street,305 State St,305.0,53703.0,43.0747684,-89.3904622,state street brats,"603 State St, Madison, WI 53703",603.0,53703.0,43.0747,-89.3955,0
18782,VozM1JCr5ymSambcvx0TAg,17502348,lulu's deli and restaurant,2524 University Ave,2524.0,53774.0,43.072576,-89.42972,lombardino's restaurant,"2500 University Ave, Madison, WI 53705",2500.0,53705.0,43.0722,-89.4288,0
61399,84WYW7OfV-IXUJk95EL5_Q,17503803,samba brazilian grill,"240 W Gilman St, Fl 2",240.0,53703.0,43.07546,-89.393063,banushi's bar and grill,"800 Nygaard St, Stoughton, WI 53589",800.0,53589.0,42.924931,-89.249767,0
55240,9WD2zF1sDf1kNj-1EnVDyg,17503565,world of beer,8225 Greenway Blvd,8225.0,53562.0,43.089859,-89.5236581,taste of sundance rooftop bar,"430 N. Midvale Blvd (Hilldale Mall), Madison, WI 53705",430.0,53705.0,43.070632,-89.451384,0
63152,DcdjPu2wFoMp-G3K7PnYqQ,17503871,anna's pizzeria,1609 W Main St,1609.0,53590.0,43.1778077,-89.2403448,aj's pizzeria and diner,"300 South Main St, Verona, WI 53593",300.0,53593.0,42.9880198,-89.5336701,0
24775,iy-t6CyVL2g38wPFY4ac4g,17502521,pizza hut,7440 Mineral Point Rd,7440.0,53717.0,43.061151,-89.512235,pizza hut,"7440 Mineral Point Rd, Madison, WI 53717",7440.0,53717.0,43.0608,-89.5111,1
19888,bjgffjRaxLvgh9CJq1xxVg,17502395,blue spoon cafe,"2831 Parmenter St, Ste 140",2831.0,53562.0,43.1054335,-89.5106336,mermaid cafe,"1929 Winnebago St, Madison, WI 53704",1929.0,53704.0,43.0912,-89.3556,0
37533,dh9tT-o7KliyiQKwQ_G2qg,17502966,silver eagle bar & grill,5805 Monona Dr,5805.0,53716.0,43.056329,-89.326148,snicks sportsmans bar llc,"4605 Monona Dr, Monona, WI 53716",4605.0,53716.0,43.0703,-89.3263,0
65861,RCfpKRSP5o04gdzy7Vhnqw,17503967,jodi's bar and grill,1821 Main St,1821.0,53528.0,43.1140164634,-89.6505199,varsity bar & grill,"1205 West Main Street, Sun Prairie, WI 53590",1205.0,53590.0,43.179549,-89.233203,0
71555,TLTawnc8rVosRV9z5-8oOw,17797204,charley's grilled subs,644 State St,644.0,53703.0,43.074897,-89.3959817,firehouse subs,"449 State St, Madison, WI 53703",449.0,53703.0,43.074475,-89.393396,0
7264,6x-G-PqJq67qi-7A9BTRsg,17501822,1855 saloon and grill,218 S. Main Street,218.0,53527.0,43.0756243,-89.1995036,black hawk tavern & grill,"200 S Main St, Fort Atkinson, WI 53538",200.0,53538.0,42.9268,-88.8372,0
4964,IXXERocY1bqGwRllcy8J2w,17501759,sophia's bakery & cafe,"831 E Johnson St, Ste 4",831.0,53703.0,43.0838052,-89.3768109,fall inn cafe,"722 S Main St, Fall River, WI 53932",722.0,53932.0,43.3804,-89.0613,0
25650,BXQKPvzAFDOOXDQzxIU6RA,17502540,fat sandwich company,555 State St,555.0,53703.0,43.0748766,-89.3953986,potbelly sandwich shop,"564 State St, Madison, WI 53703",564.0,53703.0,43.0749,-89.3948,0
22286,cFxGP_IC4REtJspMNQ3vLg,17502478,city bar,636 State St,636.0,53703.0,43.0748957,-89.3957596,pantheon bar,"316 State St, Madison, WI 53703",316.0,53703.0,43.0749,-89.3904,0
12469,9BeOKr8DGzDEmdoe-FzQbg,17502091,kennedy manor dining room & bar,"1 Langdon St, Ste 103",1.0,53703.0,43.07836,-89.3897099,city bar,"636 State St, Madison, WI 53703",636.0,53703.0,43.0749,-89.3961,0
46575,2vDSveTk2Wyp7XoNHjK1yg,17503251,laz bistro and bar,419 E Main St,419.0,53589.0,42.9166406,-89.215992,canopy bar,"1212 Main St, Waterloo, WI 53594",1212.0,53594.0,43.1978,-88.9747,0
372,bjgffjRaxLvgh9CJq1xxVg,17501566,blue spoon cafe,"2831 Parmenter St, Ste 140",2831.0,53562.0,43.1054335,-89.5106336,buzz inn cafe,"207 W Main St, Barneveld, WI 53507",207.0,53507.0,43.0148,-89.8972,0
34599,CqCWN9aBJf8YNJxyel7psg,17502864,glass nickel pizza,"5003 University Ave, Ste 170",5003.0,53705.0,43.075514738,-89.4666706186,papa john's pizza,"6615 University Ave, Middleton, WI 53562",6615.0,53562.0,43.0957,-89.4947,0
66258,iy-t6CyVL2g38wPFY4ac4g,17503969,pizza hut,7440 Mineral Point Rd,7440.0,53717.0,43.061151,-89.512235,topper's pizza,"7850 Mineral Point Road, Madison, WI 53717",7850.0,53717.0,43.060584,-89.519354,0
68301,qou7HXpSiGdNzSmxhf59XA,17504054,4b cafe,"787 N Main St, Ste 106",787.0,53575.0,42.9383678,-89.3835669,main street cafe,"5 W Main St, Evansville, WI 53536",5.0,53536.0,42.78034,-89.2993,0
18045,Xc3Y8_cWBnMVXvoJmGCh4g,17502331,la rocca's restaurant and pizzeria,940 Williamson St,940.0,53774.0,43.0804585,-89.3685384,lao laan-xang restaurant,"1146 Williamson St, Madison, WI 53703",1146.0,53703.0,43.0827,-89.3654,0
5112,FudpYlLuoqeetWX6UCt3PQ,17501772,curry in the box,"3050 Cahill Main, Ste 3",3050.0,53711.0,43.023349,-89.418612,curry in the box,"3050 Cahill Main Ste 4, Fitchburg, WI 53711",3050.0,53711.0,43.0204,-89.4198,1
12985,NYxVVeeI-zz2qjPKk6FCwg,17502119,cracker barrel old country store,2147 E Springs Dr,2147.0,53704.0,43.1295964,-89.2934283,cracker barrel,"2147 E Springs Dr, Madison, WI 53704",2147.0,53704.0,43.1262,-89.2957,1
27660,IXXERocY1bqGwRllcy8J2w,17502616,sophia's bakery & cafe,"831 E Johnson St, Ste 4",831.0,53703.0,43.0838052,-89.3768109,sophia's bakery & cafe,"831 E Johnson St, Madison, WI 53703",831.0,53703.0,43.0835,-89.3773,1
67044,scM6rLQqoz5dEIgwz_JFsg,17503998,haveli restaurant,5957 McKee Rd,5957.0,53719.0,43.0149577177,-89.458248397,haveli,"5957 McKee Road, Fitchburg, WI 53719",5957.0,53719.0,43.0149304,-89.4574374,1
12451,98wHSByl7JRdrYcMuFfGeA,17502083,sjolinds chocolate house,"219 E Main St, Ste A",219.0,53572.0,43.0085249,-89.7372832,chocolate shoppe ice cream,"468 State St, Madison, WI 53703",468.0,53703.0,43.0749,-89.3928,0
19811,wbia2cGn5pUSCZGLYTu0kw,17502391,portage pi cafe & juice bar,"Graduate Madison, 601 Langdon St",601.0,53703.0,43.075514,-89.395657,yola's cafe,"494 Commerce Dr, Madison, WI 53719",494.0,53719.0,43.0554,-89.523,0
22998,qnuBmj3lL_S_QQOmTI9cfw,17502488,orpheum lobby restaurant,216 State St,216.0,53703.0,43.0748942,-89.3886553,parthenon gyros restaurant,"316 State St, Madison, WI 53703",316.0,53703.0,43.0749,-89.3904,0
11926,E4HlcOykIxIDiJyUKO-eIg,17502062,chang jiang restaurant,3195 Muir Field Rd,3195.0,53719.0,43.0158088,-89.5114286,chang jiang,"3195 Muir Field Rd, Madison, WI 53719",3195.0,53719.0,43.0161,-89.5111,1
54968,tGeWVgHBoAXVuogF2fxOwg,17503548,aj's pizzeria and diner,300 S Main St,300.0,53593.0,42.9880198,-89.5336701,schuberts downtown diner,"128 E Main St, Mount Horeb, WI 53572",128.0,53572.0,43.008927,-89.738852,0
852,xLm4S3tpxbPStwHHrhxKTg,17501577,paoli bread and brat house,6890 Paoli Rd,6890.0,53593.0,42.929422,-89.5252777,paoli pub & grill,"6893 Paoli Rd, Belleville, WI 53508",6893.0,53508.0,42.9293,-89.5258,0
69146,RDQ_812x82H72J7C6jG36Q,17504077,la taguara,3502 E Washington Ave,3502.0,53704.0,43.1146792,-89.3285605,la michoacana,"4512 E Washington Avenue, Madison, WI 53704",4512.0,53704.0,43.129593,-89.309073,0
48751,UxhEJdt0iacusZP1gmNZAg,17503328,belleville ale house,7 W Main St,7.0,53508.0,42.859945,-89.534453,sjolinds chocolate house,"219 E Main St, Mt Horeb, WI 53572",219.0,53572.0,43.008513,-89.73736,0
38706,uXZ4Of7CV77SmKIjya3y_A,17502991,varsity bar & grill,1205 W Main St,1205.0,53590.0,43.1797865,-89.233109,main street pub & grill,"120 E Main St, Mount Horeb, WI 53572",120.0,53572.0,43.0087,-89.7393,0
38222,tCdku8Xrba2xTlN1_TIBWA,17502982,koffee kup restaurant,355 E Main St,355.0,53589.0,42.9165399,-89.217249,monticello house restaurant,"149 N Main St, Monticello, WI 53570",149.0,53570.0,42.7451,-89.5946,0
48133,84WYW7OfV-IXUJk95EL5_Q,17503315,samba brazilian grill,"240 W Gilman St, Fl 2",240.0,53703.0,43.07546,-89.393063,morgan's pub & grill,"123 W Milwaukee St, Jefferson, WI 53549",123.0,53549.0,43.0046,-88.8082,0
11236,hc81y_5FQjTiZcgqnY8vfQ,17502020,pizza hut,4762 Cottage Grove Rd,4762.0,53716.0,43.0845957,-89.2995667,buck's pizza,"219 Cottage Grove Rd, Madison, WI 53716",219.0,53716.0,43.0836,-89.3224,0
17954,Hty6oLQ1_FSRW5XgZtWrXw,17502330,lao laan-xang,2098 Atwood Ave,2098.0,53704.0,43.0928326884,-89.3519827939,lao laan xang restaurant,"2098 Atwood Ave, Madison, WI 53704",2098.0,53704.0,43.0928,-89.352,1
14355,kjs2IutpZINFnTWx4r6j0Q,17502176,el bolillo bakery,4544 Monona Dr,4544.0,53716.0,43.07051,-89.3254733,emian's bakery & cafe,"4544 Monona Dr, Madison, WI 53716",4544.0,53716.0,43.0712,-89.3259,0
40480,RpJJeDl84FKx4-FwwY2w0w,17503020,dayton street grille,"The Madison Concourse Hotel And Governor's Club, 1 W Dayton St",1.0,53703.0,43.0756129,-89.3865836,sweet street bakery,"N9229 Old Madison Rd, New Glarus, WI 53574",9229.0,53574.0,42.8403,-89.6365,0
37627,sUzvletCYiIaZD_hbnNLEA,17502970,taco bell,100 E Broadway,100.0,53716.0,43.0477,-89.3246,taco bell,"100 E Broadway, Monona, WI 53716",100.0,53716.0,43.0477,-89.3245,1
22759,TvhpG74DvdoF4MA0vLlOLw,17502483,buck's pizza,219 Cottage Grove Rd,219.0,53716.0,43.0836891,-89.3225822,papa murphy's pizza,"4664 Cottage Grove Rd, Madison, WI 53716",4664.0,53716.0,43.0843,-89.3017,0
46342,X0siHN0KchBjGKn9QsEAFg,17503239,vintage spirits & grill,529 University Ave,529.0,53703.0,43.0729361,-89.3954456,monte's grill & pub,"608 W Verona Ave Ste A, Verona, WI 53593",608.0,53593.0,42.9885,-89.5461,0
945,-mst4KdHEmeF3Qm0Xfouhw,17501578,subway,"6000 Monona Dr, Ste 100",6000.0,53716.0,43.0539464275,-89.3249382824,subway,"1019 River St Ste 4, Belleville, WI 53508",1019.0,53508.0,42.8774,-89.5331,0
3393,Bx8cfQJpZvKNA4TWPFWDJQ,17501692,tuscany mediterranean grill,2969 Cahill Main,2969.0,53711.0,43.0165752,-89.4242797,deerfield pub & grill,"15 N Main St, Deerfield, WI 53531",15.0,53531.0,43.053,-89.0755,0
43389,hwjbr0Qskx_qWqx1de5gTg,17503137,pizza pit,611 S Main St,611.0,53532.0,43.2414099,-89.3437115,pizza pit,"1060 W Main St, Stoughton, WI 53589",1060.0,53589.0,42.9169,-89.2324,0
29143,tyo6QzKpnUVTjXoq91FBuQ,17502702,toby's supper club,3717 S Dutch Mill Rd,3717.0,53718.0,43.0440001,-89.3027747,toby's supper club,"3717 S Dutch Mill Rd, Madison, WI 53718",3717.0,53718.0,43.0454,-89.3037,1
64033,nzUA0vgcta7OPwpWPbe7Ug,17503905,crostini sandwiches,231 North St,231.0,53704.0,43.1030197,-89.3499615,crostini sandwiches,"231 North Street, Madison, WI 53704",231.0,53704.0,43.1025123,-89.3499824,1
5814,l7A73zaNzDyWJJ0ixc2ymw,17501790,pizza pit,330 W Main St,330.0,53590.0,43.1832772,-89.2185271,papa murphy's pizza,"2980 Cahill Main Ste 109, Fitchburg, WI 53711",2980.0,53711.0,43.0188,-89.4223,0
47945,eJYvivWUp4Hdc9Tc8SaZPA,17503306,buraka restaurant,543 State St,543.0,53703.0,43.0748002,-89.3952993,golden wok restaurant,"1509 State Rd 26, Jefferson, WI 53549",1509.0,53549.0,43.0229,-88.8079,0
2753,fVPkpAqN5YCddwMb6QVUMQ,17501668,main street kitchen,120 E Main St,120.0,53589.0,42.9170299,-89.220067,chang jiang chinese kitchen,"631 S Main St, De Forest, WI 53532",631.0,53532.0,43.2414,-89.3435,0
19569,3a1w3Ufs9CCC3GJTAV8EpQ,17502384,mcdonald's,4500 University Ave,4500.0,53705.0,43.075892,-89.454836,mcdonald's,"4500 University Ave, Madison, WI 53705",4500.0,53705.0,43.0755,-89.4545,1
46332,rvsye09KiUNW_Xa3mygo3Q,17503239,panchero's mexican grill,3256 University Ave,3256.0,53705.0,43.0755641,-89.4432635,monte's grill & pub,"608 W Verona Ave Ste A, Verona, WI 53593",608.0,53593.0,42.9885,-89.5461,0
1386,1Hhc1h5TETqtVMgasiimuQ,17501604,subway,1429 W Main St,1429.0,53590.0,43.1784005,-89.2377158,subway,"412 W Main St, Cambridge, WI 53523",412.0,53523.0,43.0073,-89.0226,0
60163,lbFkq0Ac2nXeeWBCJ0jZRA,17503761,dickey's barbecue pit,"4833 Annamark Dr, Ste 200",4833.0,53704.0,43.133103,-89.299181,dickey's barbecue pit,"4833 Annamark Dr, Madison, WI 53704",4833.0,53704.0,43.1336297,-89.2995085,1
61154,RCfpKRSP5o04gdzy7Vhnqw,17503795,jodi's bar and grill,1821 Main St,1821.0,53528.0,43.1140164634,-89.6505199,willie's restaurant and bar,"118 S Main St, Lodi, WI 53555",118.0,53555.0,43.3133562,-89.5263729,0
52791,rnx0KHHTD9Yvr2BWAWwQ4g,17503468,daisy cafe & cupcakery,2827 Atwood Ave,2827.0,53704.0,43.0936724,-89.3426022,the green owl cafe,"1970 Atwood Ave, Madison, WI 53704",1970.0,53704.0,43.092247,-89.35551,0
28632,xkF-0GL_TKkU51xWpItBTQ,17502684,murphy's tavern,3737 East Washington Ave,3737.0,53704.0,43.1177825,-89.3220736,murphy's tavern,"3737 E Washington Ave, Madison, WI 53704",3737.0,53704.0,43.1178,-89.3227,1
58744,mJAhCy5XbkaeQqMN05h4Yg,17503707,cupcakes-a-go-go cafe,6642 Mineral Point Rd,6642.0,53705.0,43.060838,-89.4966755,tnt's coffee & cafe,"729 N. High Point Rd, Madison, WI 53717",729.0,53717.0,43.076078,-89.518423,0
71124,mOzxFBAHWwpuH7u5xP0oHw,17797194,takara japanese restaurant,315 State St,315.0,53703.0,43.074663,-89.3907855,608 restaurant and bar,"212 State St, Madison, WI 53703",212.0,53703.0,43.0747764,-89.3886148,0
56317,1iS-pzwKiNF21UWHl9Rl5g,17503614,macchiatos coffee & wine bar,605 S Main St,605.0,53532.0,43.2416769,-89.3437155,olde town coffee house,"218 S Main St, Cottage Grove, WI 53527",218.0,53527.0,43.076105,-89.199537,0
65471,h7hgUiuQ9vSczhKdV5YgGw,17503958,buckingham's bar & grill,802 Regent St,802.0,53715.0,43.0678281,-89.3994635,red zone pub & grill,"1212 Regent Street, Madison, WI 53715",1212.0,53715.0,43.067954,-89.406295,0
29866,MSrcYJoM9cNLS9-wfTZX3w,17502743,highland corner grill,"Best Western Plus InnTowner & Highland Club, 2424 University Ave",2424.0,53726.0,43.072493,-89.42778,vintage spirits & grill,"529 University Ave, Madison, WI 53703",529.0,53703.0,43.0731,-89.3946,0
44438,ZoZWONMz3tzxRLOSQEJosQ,17503200,prairie fire,"Union S, 1308 W Dayton St, 1st  Fl",1308.0,53715.0,43.0717653,-89.4081342,prairie diner,"1034 Windsor St, Sun Prairie, WI 53590",1034.0,53590.0,43.1875,-89.2298,0
69317,gwKOawUNlVvt-b38LNgpLw,17504080,caspian cafe & catering,610 University Ave,610.0,53715.0,43.0734472,-89.3962924,capital cafe,"975 University Ave, Madison, WI 53706",975.0,53706.0,43.0726811,-89.4016921,0
75809,xIYTia1c4IUFxIQlBItasA,18320384,aztlan mexican grill,407 W Main St,407.0,53572.0,43.007059,-89.746169,treads bar and grill,"407 W Verona Avenue, WI 53593",407.0,53593.0,42.989114,-89.539082,0
476,8-5X-aC_OKrCeOcAjVSzIA,17501569,tater's cafe and chophouse,135 W Main St,135.0,53589.0,42.916505,-89.220899,corner cafe,"30 W Main St, Belleville, WI 53508",30.0,53508.0,42.8595,-89.5324,0
62753,YgBQEX8dB27FdYj7PaPhPw,17503845,gates & brovi,3502 Monroe St,3502.0,53711.0,43.052916,-89.435789,gates & brovi,"3502 Monroe St, Madison, WI 53711",3502.0,53711.0,43.0528326,-89.4357877,1
11878,iSOaf_-deg1nIlCm3cuzvg,17502049,capitol chophouse,10 E Wilson,10.0,53703.0,43.0727765,-89.3807764,capitol chophouse,"9 E Wilson St, Madison, WI 53703",9.0,53703.0,43.0725,-89.381,1
22238,ih3ddtApyqb6W3T1mkdrag,17502476,panera bread,3416 University Ave,3416.0,53705.0,43.075946,-89.446009,panera bread,"3416 University Ave, Madison, WI 53705",3416.0,53705.0,43.0754,-89.445,1
41074,oWlw9371cuPN-dQ-VEwgYg,17503037,maria's pizza,134 S Main St,134.0,53575.0,42.9254462,-89.3843734,pizza pit,"130 N Main St, Oregon, WI 53575",130.0,53575.0,42.9272,-89.3839,0
14120,xIYTia1c4IUFxIQlBItasA,17502164,aztlan mexican grill,407 W Main St,407.0,53572.0,43.007059,-89.746169,echo tap & grill,"554 W Main St, Madison, WI 53703",554.0,53703.0,43.0687,-89.3907,0
45829,8B4tanBgBpccBUWSEH4yLA,17503228,dragon city,600 W Verona Ave,600.0,53593.0,42.988809,-89.545425,dragon city chinese restaurant,"600 W Verona Ave, Verona, WI 53593",600.0,53593.0,42.9886,-89.545,1
25959,KYdtom3RyDt-3SWGwmJcQA,17502547,qdoba mexican eats,6650 Mineral Point Rd,6650.0,53705.0,43.0614295863,-89.4965509978,qdoba mexican grill,"6650 Mineral Point Rd, Madison, WI 53705",6650.0,53705.0,43.0608,-89.4964,1
23034,Lvg2y48cv7xFUJBqoUXmvw,17502495,happy grill mexican restaurant,"2810 E Washington Ave, Ste A",2810.0,53704.0,43.102869,-89.3457212,pedro's mexican restaurante,"3555 E Washington Ave, Madison, WI 53704",3555.0,53704.0,43.1155,-89.3262,0
68471,wbia2cGn5pUSCZGLYTu0kw,17504058,portage pi cafe & juice bar,"Graduate Madison, 601 Langdon St",601.0,53703.0,43.075514,-89.395657,doc rock cafe,"5395 E Cheryl Pkwy, Madison, WI 53711",5395.0,53711.0,43.003734,-89.415321,0
67184,9ySFD8tMkeuTclyWfanI9w,17504006,buck's pizza,5502 University Ave,5502.0,53711.0,43.0828269,-89.4752687,itzza pizza,"2825 University Ave, Madison, WI 53705",2825.0,53705.0,43.0742897,-89.4374308,0
1919,qd7KHsn4B4q3CqNw-yxOWQ,17501634,doughboys pizza,447 West Cottage Grove Rd,447.0,53527.0,43.0866451,-89.2088032,hot stuff pizza,"203 W. Cottage Grove Rd., Cottage Grove, WI 53527",203.0,53527.0,43.0866,-89.2042,0
3983,5knOqCWniwFbDlznijP3bQ,17501720,little caesars pizza,1334 W Main St,1334.0,53590.0,43.1794029,-89.2363971,hot stuff pizza,"1 South Main St., Edgerton, WI 53534",1.0,53534.0,42.8335,-89.0699,0
76351,KAhavksKQwKbMzZHiNOyOQ,18361614,gino's restaurant,540 State St,540.0,53703.0,43.075131,-89.394445,crandall's peruvian restaurant,"334 State Street, Madison, WI 53703",334.0,53703.0,43.0749248438,-89.3909799191,0
54496,wbia2cGn5pUSCZGLYTu0kw,17503536,portage pi cafe & juice bar,"Graduate Madison, 601 Langdon St",601.0,53703.0,43.075514,-89.395657,concourse hotel bar,"1 W. Dayton St., Madison, WI 53703",1.0,53703.0,43.07602,-89.386162,0
48006,9BeOKr8DGzDEmdoe-FzQbg,17503308,kennedy manor dining room & bar,"1 Langdon St, Ste 103",1.0,53703.0,43.07836,-89.3897099,herbie's bar,"115 E Milwaukee St, Jefferson, WI 53549",115.0,53549.0,43.0046,-88.8069,0
28496,V_2YX2rW_l5N3UwwifokCQ,17502670,olive garden italian restaurant,7017 Mineral Point Rd,7017.0,53717.0,43.0602878766,-89.5044983736,swagat restaurant,"707 N High Point Rd, Madison, WI 53717",707.0,53717.0,43.0753,-89.5184,0
7840,iNphZPJ8kjvjUvWK7zXkSA,17501854,domino's pizza,6915 University Ave,6915.0,53562.0,43.0969955,-89.5008508,pizza villa,"109 Sherman Ave W, Fort Atkinson, WI 53538",109.0,53538.0,42.92956,-88.839345,0
74146,gVTna38clthQRSd9doGYjg,17826354,rev. jim's roadhouse,6402 Millpond Rd,6402.0,53718.0,43.0446999,-89.2681911,rev jim's roadhouse,"6402 Millpond Rd, Madison, WI 53718",6402.0,53718.0,43.0446933,-89.2681931,1
48496,l7A73zaNzDyWJJ0ixc2ymw,17503317,pizza pit,330 W Main St,330.0,53590.0,43.1832772,-89.2185271,pizza pit extreme,"128 S Main St, Jefferson, WI 53549",128.0,53549.0,43.005,-88.8071,0
65674,gsCOklDm1pbx3Tzo3W-mtw,17503959,el patron mexican grill,1303 W Main St,1303.0,53590.0,43.1793095,-89.2351404,aztlan mexican grill,"407 W Main St, Mount Horeb, WI 53572",407.0,53572.0,43.007059,-89.746169,0
19041,FMMNajth88mWX76QVp6N9Q,17502365,maharani restaurant,380 W Washington Ave,380.0,53703.0,43.0719143,-89.389124,maharani indian restaurant,"380 W Washington Ave, Madison, WI 53703",380.0,53703.0,43.0726,-89.3874,1
57109,qou7HXpSiGdNzSmxhf59XA,17503649,4b cafe,"787 N Main St, Ste 106",787.0,53575.0,42.9383678,-89.3835669,cafe o,"611 Langdon St, Madison, WI 53703",611.0,53703.0,43.075635,-89.395702,0
2159,w53wITixOgDFWld-X1mMng,17501650,main depot tavern,627 W Main St,627.0,53703.0,43.0672802,-89.392125,kurt's on main,"1902 Main St, Cross Plains, WI 53528",1902.0,53528.0,43.1136,-89.6504,0
1960,TvhpG74DvdoF4MA0vLlOLw,17501634,buck's pizza,219 Cottage Grove Rd,219.0,53716.0,43.0836891,-89.3225822,hot stuff pizza,"203 W. Cottage Grove Rd., Cottage Grove, WI 53527",203.0,53527.0,43.0866,-89.2042,0
40642,c5mnoNYWzsw_gJSZ0C4b6w,17503030,spartan pizza,5813 Main St,5813.0,53558.0,43.0141412,-89.2886604,maria's pizza,"134 S Main St, Oregon, WI 53575",134.0,53575.0,42.9254,-89.3844,0
2306,RG2IGb4LwbxUwCW3iooYDA,17501652,otto's restaurant & bar,6405 Mineral Point Rd,6405.0,53705.0,43.0600543,-89.4906724,morgan's bar and grill,"8640 W Mineral Point Rd, Cross Plains, WI 53528",8640.0,53528.0,43.0608,-89.6547,0
38919,8fArAA0gwfUbb3uWotd5mw,17502997,ocean grill,117 Mrtn Lthr Kng Jr,117.0,53703.0,43.0730517,-89.4012302,firehouse bar & grill,"117 S 1st Street, Mount Horeb, WI 53572",117.0,53572.0,43.0083,-89.7395,0
46327,COnqdubhr87gCDJjPGwT6A,17503239,freska mediterranean grill,"8310 Greenway Blvd, Ste 104",8310.0,53562.0,43.0906254,-89.5255632,monte's grill & pub,"608 W Verona Ave Ste A, Verona, WI 53593",608.0,53593.0,42.9885,-89.5461,0
34883,i7MSJP4JH9yoNpbUsaV9_w,17502869,gumby's pizza & wings delivery hotline,449 State St Ste I,449.0,53703.0,43.074792,-89.393135,pizza hut,"6771 University Ave Ste 101, Middleton, WI 53562",6771.0,53562.0,43.0969,-89.4985,0
32646,KHZKC-xiTAC8yoxRC_95Tg,17502806,pizza hut,633 S Main St,633.0,53532.0,43.2393613,-89.342612,spartan pizza,"5813 Main St, Mc Farland, WI 53558",5813.0,53558.0,43.0146,-89.2887,0
66537,Sq596PqWNj7J0s-YAQmrQA,17503974,tagura asian grill,"8333 Greenway Blvd, Ste 100",8333.0,53562.0,43.089673,-89.526448,doolittles woodfire grill,"4323 E Towne Blvd, Madison, WI 53704",4323.0,53704.0,43.1254144,-89.3087671,0
72974,4mYNxIZan0vuTqZ9BS7__w,17797229,smoothie king,2980 Cahill Main,2980.0,53711.0,43.0177969,-89.4233931,smoothie king,"2980 Cahill Main, Fitchburg, WI 53711",2980.0,53711.0,43.0178041,-89.4233394,1
13194,4Cj7zLIU47UY21yjdBGdtQ,17502120,a&w restaurant,4505 Lake Cir,4505.0,53598.0,43.1955564,-89.3441762,cranberry creek restaurant & catering,"1501 Lake Point Dr, Madison, WI 53713",1501.0,53713.0,43.0481,-89.3397,0
24756,i7MSJP4JH9yoNpbUsaV9_w,17502520,gumby's pizza & wings delivery hotline,449 State St Ste I,449.0,53703.0,43.074792,-89.393135,pizza hut,"6502 Grand Teton Plz Ste 6, Madison, WI 53719",6502.0,53719.0,43.0593,-89.4922,0
56370,XaVHqVByyKswE0wV-B0HRg,17503621,el rio grande,524 W Main St,524.0,53589.0,42.9172006,-89.2269704,el patron,"1303 W. Main St., Sun Prairie, WI 53590",1303.0,53590.0,43.179328,-89.235154,0
41851,ZoZWONMz3tzxRLOSQEJosQ,17503066,prairie fire,"Union S, 1308 W Dayton St, 1st  Fl",1308.0,53715.0,43.0717653,-89.4081342,sauk prairie eagle inn,"655 Water St, Prairie Du Sac, WI 53578",655.0,53578.0,43.2924,-89.7225,0
75680,qQMvHvHnVIEHaOSxTEIu9A,18282612,the hilltop,4173 County Rd P,4173.0,53528.0,43.0847455388,-89.6559139572,the hilltop,"4173 County Rd P, Madison",4173.0,,43.0840621032,-89.6565347048,1
61259,FDSl04CJhMXhVT5rT7-pjg,17503795,j & m bar and grill,127 W Main St,127.0,53508.0,42.860019,-89.536184,willie's restaurant and bar,"118 S Main St, Lodi, WI 53555",118.0,53555.0,43.3133562,-89.5263729,0
13235,Y9Lsu_1dVNarV2wt1t5Cgw,17502125,growlers bar & grille,"Crowne Plaza Madison, 4402 E Washington Ave",4402.0,53704.0,43.1275033,-89.3094196,crystal corner bar,"1302 Williamson St, Madison, WI 53703",1302.0,53703.0,43.0847,-89.3625,0
71016,9BeOKr8DGzDEmdoe-FzQbg,17757955,kennedy manor dining room & bar,"1 Langdon St, Ste 103",1.0,53703.0,43.07836,-89.3897099,gourmet dining room,"1701 Wright St, Madison, WI 53704",1701.0,53704.0,43.1217155,-89.3285843,0
51575,0rrq-d9iNL2rrLET61v7jg,17503421,laredo's mexican restaurant,2935 S Fish Hatchery Rd,2935.0,53711.0,43.0144343,-89.4274935,laredo's mexican restaurante,"2935 S Fish Hatchery Rd, Fitchburg, WI 53711",2935.0,53711.0,43.015008,-89.425882,1
29805,rvsye09KiUNW_Xa3mygo3Q,17502743,panchero's mexican grill,3256 University Ave,3256.0,53705.0,43.0755641,-89.4432635,vintage spirits & grill,"529 University Ave, Madison, WI 53703",529.0,53703.0,43.0731,-89.3946,0
8676,qnuBmj3lL_S_QQOmTI9cfw,17501884,orpheum lobby restaurant,216 State St,216.0,53703.0,43.0748942,-89.3886553,lake oasis family restaurant,"N6947 State Rd 89, Lake Mills, WI 53551",6947.0,53551.0,43.0976,-88.908,0
68077,dyJK_XniS782sIhzWS7z5g,17504051,lane's bakery & coffee,2304 S Park St,2304.0,53713.0,43.0420146,-89.3939138,lane's bakery & coffee,"2304 S Park St, Madison, WI 53713",2304.0,53713.0,43.041176,-89.39412,1
36987,xnY3_Tg5PjE_8n_bhwZu1Q,17502955,original pancake house,516 River Pl,516.0,53716.0,43.0452411,-89.3261341,original pancake house,"518 River Pl, Monona, WI 53716",518.0,53716.0,43.0457,-89.3249,1
29466,nsgwXdmlWimq9zQ-E3mfMQ,17502728,gallup! coffee & bakehouse,1859 Monroe St,1859.0,53711.0,43.0647664,-89.417184,victor allen's coffee & tea,"2623 Monroe St, Madison, WI 53711",2623.0,53711.0,43.0575,-89.4281,0
17543,IsADZMYEJKXTtPfN9YsiBA,17502314,kabul restaurant,540 State St,540.0,53703.0,43.075131,-89.394445,kabul afghanistan restaurant,"540 State St, Madison, WI 53703",540.0,53703.0,43.0747,-89.3943,1
2726,6nLuU3av6aQiLVXHNWLbew,17501667,sugar river pizza,"1019 River St, Ste 5",1019.0,53508.0,42.8753193,-89.5329802,casey's carry out pizza,"602 W North St, De Forest, WI 53532",602.0,53532.0,43.2528,-89.3563,0
1291,w53wITixOgDFWld-X1mMng,17501597,main depot tavern,627 W Main St,627.0,53703.0,43.0672802,-89.392125,london depot,"W9696 E Main St, Cambridge, WI 53523",9696.0,53523.0,43.047,-89.0113,0
6135,fa_yHDsmP319J11HXoWAHQ,17501793,little caesar's pizza,3042 Fish Hatchery Rd,3042.0,53713.0,43.0256771,-89.4148895,pizza hut,"2935 S Fish Hatchery Rd, Fitchburg, WI 53711",2935.0,53711.0,43.0151,-89.4257,0
22086,Y9Lsu_1dVNarV2wt1t5Cgw,17502463,growlers bar & grille,"Crowne Plaza Madison, 4402 E Washington Ave",4402.0,53704.0,43.1275033,-89.3094196,otto's restaurant & bar,"6405 Mineral Pt Rd, Madison, WI 53705",6405.0,53705.0,43.0607,-89.4896,0
43441,jF3zUwEWluI2ZPzkke9mXA,17503137,la bella pizza & pasta,407 W Main St,407.0,53572.0,43.007059,-89.746169,pizza pit,"1060 W Main St, Stoughton, WI 53589",1060.0,53589.0,42.9169,-89.2324,0
60360,bjgffjRaxLvgh9CJq1xxVg,17503762,blue spoon cafe,"2831 Parmenter St, Ste 140",2831.0,53562.0,43.1054335,-89.5106336,4 & 20 bakery and cafe,"305 N 4th St, Madison, WI 53704",305.0,53704.0,43.0982303,-89.3570844,0
63972,t67GMPZ0cv_ItKlID-JFiQ,17503901,banzo,2105 Sherman Ave,2105.0,53704.0,43.1016722349,-89.3645954132,banzo restaurant,"2105 Sherman Ave, Madison, WI 53704",2105.0,53704.0,43.101524,-89.364768,1
56442,u_A58uX7x7AEOKOboFGFpg,17503630,hy-vee market grille,3801 E Washington Ave,3801.0,53714.0,43.1177648,-89.3183402,hy-vee,"3801 East Washington Avenue, Madison, WI 53704",3801.0,53704.0,43.118977,-89.320947,1
60210,IXXERocY1bqGwRllcy8J2w,17503762,sophia's bakery & cafe,"831 E Johnson St, Ste 4",831.0,53703.0,43.0838052,-89.3768109,4 & 20 bakery and cafe,"305 N 4th St, Madison, WI 53704",305.0,53704.0,43.0982303,-89.3570844,0
60802,YnysIH0yvgMLtlsBdOSecw,17503782,asahi japanese restaurant,536 S Park St,536.0,53715.0,43.0615382,-89.4008856,asahi japanese restaurant,"532 S Park St, Madison, WI 53715",532.0,53715.0,43.061123,-89.400997,1
58440,wbia2cGn5pUSCZGLYTu0kw,17503697,portage pi cafe & juice bar,"Graduate Madison, 601 Langdon St",601.0,53703.0,43.075514,-89.395657,tempest oyster bar,"120 E Wilson St, Madison, WI 53703",120.0,53703.0,43.073656,-89.380017,0
10675,yPgUkQxj8CYPKF89HV65kg,17501999,lombardinos italian restaurant and bar,2500 University Ave,2500.0,53705.0,43.0722926,-89.4289114,blue moon bar & grill,"2535 University Ave, Madison, WI 53705",2535.0,53705.0,43.0722,-89.4296,0
59157,FDSl04CJhMXhVT5rT7-pjg,17503721,j & m bar and grill,127 W Main St,127.0,53508.0,42.860019,-89.536184,the rigby pub & grill,"119 E Main St, Madison, WI 53703",119.0,53703.0,43.0750283,-89.3811811,0
69601,YvXu5t2QiyZeZ8Gxj7ohMg,17504091,bean sprouts cafe,"6719 Frank Lloyd Wright Ave, Ste 101",6719.0,53562.0,43.106913,-89.498128,cafe at the edgewater,"1001 Wisconsin Ave, Madison, WI 53703",1001.0,53703.0,43.0791895,-89.3896863,0
44164,-CxNhGa-yskzfrTP9GX6zA,17503191,papa murphy's take and bake pizza,2099 McCoy Rd,2099.0,53590.0,43.1753564,-89.2482746,papa murphy's pizza,"2099 McCoy Rd, Sun Prairie, WI 53590",2099.0,53590.0,43.175,-89.2489,1
59910,X2Lb7fTmuyXwU3O19F5aZA,17503755,pizza pit,1860 E Washington Ave,1860.0,53704.0,43.0923911,-89.3610073,toppers pizza,"4128 E Washington Ave, Madison, WI 53704",4128.0,53704.0,43.1254164,-89.3121682,0
24515,G_DzKLA15CTjq5cOkBp0pw,17502514,pizza hut,2649 E Springs Dr,2649.0,53704.0,43.1315903,-89.3019937,pizza hut,"2649 E Springs Drive, WI 53704",2649.0,53704.0,43.1311,-89.3018,1
9809,Y9Lsu_1dVNarV2wt1t5Cgw,17501960,growlers bar & grille,"Crowne Plaza Madison, 4402 E Washington Ave",4402.0,53704.0,43.1275033,-89.3094196,avenue club and the bubble up bar,"1128 E Washington Avenue, Madison, WI 53703",1128.0,53703.0,43.08559,-89.369453,0
51739,p4qvXkb34X8hgidxEZ33Gw,17503434,ha long bay vietnamese & thai bistro,1353 Williamson St,1353.0,53703.0,43.0855448,-89.3607155,ha long bay,"1353 Williamson St., Madison, WI 53703",1353.0,53703.0,43.085073,-89.361469,1
43742,0tjNLQP55HZIVT7BxaMYrA,17503164,country cafe,1030 Emerald Ter,1030.0,53590.0,43.1870224,-89.2309754,country cafe,"1030 Emerald Ter, Sun Prairie, WI 53590",1030.0,53590.0,43.1868,-89.2306,1
60799,vn5f16PcHU-feucWgK7r1g,17503782,edo japanese restaurant,532 S Park St,532.0,53715.0,43.0611621,-89.4011106,asahi japanese restaurant,"532 S Park St, Madison, WI 53715",532.0,53715.0,43.061123,-89.400997,0
5072,hlSj3nHeSNHujnagbWXlhg,17501766,benvenuto's italian grill,2949 Triverton Pike Dr,2949.0,53711.0,43.0146691,-89.4303415,benvenuto's italian grill,"2949 Triverton Pike Drive, Fitchburg, WI 53711",2949.0,53711.0,43.0156,-89.4287,1
71206,IsADZMYEJKXTtPfN9YsiBA,17797194,kabul restaurant,540 State St,540.0,53703.0,43.075131,-89.394445,608 restaurant and bar,"212 State St, Madison, WI 53703",212.0,53703.0,43.0747764,-89.3886148,0
27168,84WYW7OfV-IXUJk95EL5_Q,17502590,samba brazilian grill,"240 W Gilman St, Fl 2",240.0,53703.0,43.07546,-89.393063,samba brazilian grill,"240 W Gilman St, Madison, WI 53703",240.0,53703.0,43.0759,-89.3923,1
47988,RJdV7djZZeH3jJadPhgVvw,17503306,chautara restaurant,334 State St,334.0,53703.0,43.0748088,-89.3910219,golden wok restaurant,"1509 State Rd 26, Jefferson, WI 53549",1509.0,53549.0,43.0229,-88.8079,0
49081,TBh4lRgZayACZKK02suaSQ,17503331,martin o'grady irish pub & grill,7436 Mineral Point Rd,7436.0,53717.0,43.0612817,-89.511733,chili's grill & bar,"7301 Mineral Point Rd, Madison, WI 53717",7301.0,53717.0,43.060492,-89.50858,0
7531,VxwcmqZ56tzPr7ZbLxlhTw,17501833,china wok,"6771 University Ave, Ste 107",6771.0,53562.0,43.0967246413,-89.4980389997,dragon china,"1509 Madison Ave, Fort Atkinson, WI 53538",1509.0,53538.0,42.9386,-88.8556,0
1613,98wHSByl7JRdrYcMuFfGeA,17501612,sjolinds chocolate house,"219 E Main St, Ste A",219.0,53572.0,43.0085249,-89.7372832,capri steak house,"126 S Ludington St, Columbus, WI 53925",126.0,53925.0,43.3381,-89.0151,0
22186,6keyv1LcbzdD8MCrRaA0nQ,17502464,outback steakhouse,279 Junction Rd,279.0,53717.0,43.0658817,-89.5239683,outback steakhouse,"279 Junction Rd, Madison, WI 53717",279.0,53717.0,43.0654,-89.5251,1
42590,Ug3Vx26eIrgUS5FJIPj-ng,17503110,banushi's bar and grill,800 Nygaard St,800.0,53589.0,42.9265365601,-89.2490386963,deaks pub & grill,"1017 Nygaard St, Stoughton, WI 53589",1017.0,53589.0,42.9268,-89.2489,0
15413,A9rIqoqp5OO_56w82PiHEA,17502225,pizza ranch,682 S Grand Ave,682.0,53590.0,43.1710665848,-89.2660852253,glass nickel pizza co.,"5003 University Ave Ste 170, Madison, WI 53705",5003.0,53705.0,43.0753,-89.465,0
54517,nTj1Yi5TyRErrP8k8H3C3g,17503537,esquire club,1025 N Sherman Ave,1025.0,53704.0,43.111265,-89.363442,cherokee country club,"5000 N. Sherman Ave., Madison, WI 53704",5000.0,53704.0,43.150567,-89.362836,0
71885,qou7HXpSiGdNzSmxhf59XA,17797211,4b cafe,"787 N Main St, Ste 106",787.0,53575.0,42.9383678,-89.3835669,jefferson cafe,"339 W Racine St, Jefferson, WI 53549",339.0,53549.0,43.005395,-88.801955,0
1297,c5mnoNYWzsw_gJSZ0C4b6w,17501599,spartan pizza,5813 Main St,5813.0,53558.0,43.0141412,-89.2886604,pizza pit extreme,"275 W Main St, Cambridge, WI 53523",275.0,53523.0,43.004871,-89.022725,0
74971,QxqMKO5IZCQUUWIx8nTDJw,17878921,colectivo coffee,583 State St,583.0,53703.0,43.0748669,-89.395633,tailgate coffee,"575 State Street, Madison, WI 53703",575.0,53703.0,43.074863,-89.395494,0
16527,lPsT-Rmmf6333z6h6ANHrw,17502268,lotsa stone fired pizza,506 State St,506.0,53703.0,43.0751207,-89.3935434,ian's pizza,"100 State St, Madison, WI 53703",100.0,53703.0,43.0747352,-89.3862121,0
28757,mOzxFBAHWwpuH7u5xP0oHw,17502686,takara japanese restaurant,315 State St,315.0,53703.0,43.074663,-89.3907855,takara japanese restaurant,"315 State St, Madison, WI 53703",315.0,53703.0,43.0747,-89.3904,1
61461,9BeOKr8DGzDEmdoe-FzQbg,17503803,kennedy manor dining room & bar,"1 Langdon St, Ste 103",1.0,53703.0,43.07836,-89.3897099,banushi's bar and grill,"800 Nygaard St, Stoughton, WI 53589",800.0,53589.0,42.924931,-89.249767,0
27145,HHCn1akqIpl_BhdcJoYPbw,17502587,saigon noodles,6754 Odana Rd,6754.0,53719.0,43.0571457,-89.4995195,saigon noodle,"6754 Odana Rd, Madison, WI 53719",6754.0,53719.0,43.0567,-89.4977,1
62918,AR1w3ragHgRvnU71A7aaZA,17503855,soga shabu shabu,508 State St,508.0,53703.0,43.0751832,-89.3936346,soga,"508 State St, Madison, WI 53703",508.0,53703.0,43.0748608,-89.3937408,1
29619,RG2IGb4LwbxUwCW3iooYDA,17502742,otto's restaurant & bar,6405 Mineral Point Rd,6405.0,53705.0,43.0600543,-89.4906724,village bar,"3801 Mineral Point Rd, Madison, WI 53705",3801.0,53705.0,43.0606,-89.4388,0
23007,RJdV7djZZeH3jJadPhgVvw,17502488,chautara restaurant,334 State St,334.0,53703.0,43.0748088,-89.3910219,parthenon gyros restaurant,"316 State St, Madison, WI 53703",316.0,53703.0,43.0749,-89.3904,0
35066,5wfInTOKyMQxxeFvqR-3vA,17502870,surge delivery cafe,"2045 Atwood Ave, Ste 109",2045.0,53704.0,43.0922657,-89.3539868,prairie cafe & bakery,"6720 Frank Lloyd Wright Ave, Middleton, WI 53562",6720.0,53562.0,43.1074,-89.4972,0
72722,rvsye09KiUNW_Xa3mygo3Q,17797224,panchero's mexican grill,3256 University Ave,3256.0,53705.0,43.0755641,-89.4432635,panchero's mexican grill,"3256 University Ave, Madison, WI 53705",3256.0,53705.0,43.0757191,-89.443277,1
71634,8-5X-aC_OKrCeOcAjVSzIA,17797205,tater's cafe and chophouse,135 W Main St,135.0,53589.0,42.916505,-89.220899,fort corner cafe,"130 N Main St, Fort Atkinson, WI 53538",130.0,53538.0,42.929753,-88.836774,0
65288,w53wITixOgDFWld-X1mMng,17503951,main depot tavern,627 W Main St,627.0,53703.0,43.0672802,-89.392125,the dining room at 209 main,"209 North Main Street, Monticello, WI 53570",209.0,53570.0,42.747341,-89.594695,0
64327,H_og8Pdq2ijAx1QrWjCMNQ,17503919,hyvee market cafe,675 S Whitney Way,675.0,53711.0,43.0509638462,-89.4728949666,hy-vee market cafe',"675 South Whitney Way, Madison, WI 53711",675.0,53711.0,43.0509222,-89.4733848,1
63423,LXVwq9kk7ThMVxsPtRjbjQ,17503880,zoe's pizzeria,"604 E Main St, Unit 6",604.0,53597.0,43.19139,-89.446031,napoli pizzeria,"128 E James St, Columbus, WI 53925",128.0,53925.0,43.337955,-89.01419,0
16404,RhlGhQt3owSO3-TXfaUoBQ,17502262,papa john's pizza,6615 University Ave,6615.0,53562.0,43.0956809,-89.4945693,hot stuff pizza,"3401 University Ave, Madison, WI 53705",3401.0,53705.0,43.0751,-89.4448,0
42880,tCdku8Xrba2xTlN1_TIBWA,17503122,koffee kup restaurant,355 E Main St,355.0,53589.0,42.9165399,-89.217249,koffee kup,"355 E Main St, Stoughton, WI 53589",355.0,53589.0,42.9166,-89.2173,1
62159,cFxGP_IC4REtJspMNQ3vLg,17503826,city bar,636 State St,636.0,53703.0,43.0748957,-89.3957596,sencha tea bar,"430 State Street, Madison, WI 53703",430.0,53703.0,43.0748207,-89.3922686,0
24679,TvhpG74DvdoF4MA0vLlOLw,17502519,buck's pizza,219 Cottage Grove Rd,219.0,53716.0,43.0836891,-89.3225822,pizza hut,"4762 Cottage Grove Rd, Madison, WI 53704",4762.0,53704.0,43.0844,-89.3001,0
38525,0jy1V32K1F_7bM8mu3nK5w,17502991,main street pub & grill,120 E Main St,120.0,53572.0,43.0086740632,-89.7376195907,main street pub & grill,"120 E Main St, Mount Horeb, WI 53572",120.0,53572.0,43.0087,-89.7393,1
43911,UrbRd2Ixu__uFMVVR5vwEw,17503180,jimmy john's,21 Tower Dr,21.0,53590.0,43.1982824,-89.2119398,jimmy john's,"21 Tower Dr, Sun Prairie, WI 53590",21.0,53590.0,43.1985,-89.2118,1
52654,pzLXZ0qeiRilQ3vM-gS1wg,17503463,avanti italian restaurant,119 S Main St,119.0,53593.0,42.9897108,-89.5331838,sunrise family restaurant,"1052 W Main St, Stoughton, WI 53589",1052.0,53589.0,42.917101,-89.232578,0
75370,1ru9ZnIcSXKtD-jQoxLzNg,18144826,freiburg gastropub,2616 Monroe St,2616.0,53711.0,43.0575507,-89.4285296,freiburg gastropub,"2616 Monroe Street, Madison, WI 53711",2616.0,53711.0,43.0575507,-89.4285296,1
43409,w_vkR8qzclBU15ygRc8jfQ,17503137,marsala's pizza and ristorante,421 E Main St,421.0,53589.0,42.916665,-89.215815,pizza pit,"1060 W Main St, Stoughton, WI 53589",1060.0,53589.0,42.9169,-89.2324,0
22191,_6b9CtXi4fQqiu2VjCVpTQ,17502465,outback steakhouse,4520 E Towne Blvd,4520.0,53704.0,43.1284594,-89.3063978,outback steakhouse,"4520 E Towne Blvd, Madison, WI 53704",4520.0,53704.0,43.1276,-89.3071,1
70796,b_PiGpk0PZyBpckb1TFITg,17504139,madison sourdough patisserie,916 Williamson St,916.0,53703.0,43.0800604,-89.3694798,msco patisserie,"918 Williamson St, Madison, WI 53703",918.0,53703.0,43.0801098,-89.3693944,0
12582,lPsT-Rmmf6333z6h6ANHrw,17502100,lotsa stone fired pizza,506 State St,506.0,53703.0,43.0751207,-89.3935434,cold stone creamery,"427 State St, Madison, WI 53703",427.0,53703.0,43.0747,-89.3922,0
72728,scLsLrgdvccvkPZADAj5Qw,17797224,churchkey bar and grill,626 University Ave,626.0,53715.0,43.0734676,-89.3970368,panchero's mexican grill,"3256 University Ave, Madison, WI 53705",3256.0,53705.0,43.0757191,-89.443277,0
48494,OKGfGPx3AJOw6ohrIXM-yg,17503317,tano's pizza,1910 Main St,1910.0,53528.0,43.1134229,-89.6499951,pizza pit extreme,"128 S Main St, Jefferson, WI 53549",128.0,53549.0,43.005,-88.8071,0
23699,XMEGoJVtQ6EgVox1yTsO8w,17502505,perkins restaurant & bakery,4863 Hayes Rd,4863.0,53704.0,43.13677,-89.29997,perkins restaurant & bakery,"4863 Hayes Rd, Madison, WI 53704",4863.0,53704.0,43.1364,-89.3,1
43432,FuVGP7x3pib95GGrN8irew,17503137,pizza pit,1060 W Main St,1060.0,53589.0,42.918072,-89.233059,pizza pit,"1060 W Main St, Stoughton, WI 53589",1060.0,53589.0,42.9169,-89.2324,1
44730,qd7KHsn4B4q3CqNw-yxOWQ,17503208,doughboys pizza,447 West Cottage Grove Rd,447.0,53527.0,43.0866451,-89.2088032,pizza pit sun prairie,"330 West Main Street, Sun Prairie, WI 53590",330.0,53590.0,43.1834,-89.2184,0
46871,VxwcmqZ56tzPr7ZbLxlhTw,17503266,china wok,"6771 University Ave, Ste 107",6771.0,53562.0,43.0967246413,-89.4980389997,china wok chinese restaurant,"204 S Century Ave Ste A6, Waunakee, WI 53597",204.0,53597.0,43.1907,-89.4616,0
36215,CqCWN9aBJf8YNJxyel7psg,17502920,glass nickel pizza,"5003 University Ave, Ste 170",5003.0,53705.0,43.075514738,-89.4666706186,paul revere's pizza,"505 Vernal Ave, Milton, WI 53563",505.0,53563.0,42.7703,-88.9372,0
62931,qou7HXpSiGdNzSmxhf59XA,17503857,4b cafe,"787 N Main St, Ste 106",787.0,53575.0,42.9383678,-89.3835669,stoughton cinema cafe,"124 West Main St, Stoughton, WI 53589",124.0,53589.0,42.9169077,-89.2207744,0
16565,6nLuU3av6aQiLVXHNWLbew,17502268,sugar river pizza,"1019 River St, Ste 5",1019.0,53508.0,42.8753193,-89.5329802,ian's pizza,"100 State St, Madison, WI 53703",100.0,53703.0,43.0747352,-89.3862121,0
44389,l7A73zaNzDyWJJ0ixc2ymw,17503199,pizza pit,330 W Main St,330.0,53590.0,43.1832772,-89.2185271,pizza pit,"330 W Main St, Sun Prairie, WI 53590",330.0,53590.0,43.1834,-89.2179,1
65304,VDvcxFhe3NttPUzftJmHjw,17503952,sunprint on the square,10 W Mifflin St,10.0,53703.0,43.0754305,-89.385822,sol's on the square,"117 East Mifflin St, Madison, WI 53703",117.0,53703.0,43.076622,-89.383313,0
2395,6nLuU3av6aQiLVXHNWLbew,17501658,sugar river pizza,"1019 River St, Ste 5",1019.0,53508.0,42.8753193,-89.5329802,tano's pizza,"1910 Main St, Cross Plains, WI 53528",1910.0,53528.0,43.1136,-89.6503,0
26748,d3LrVz27kY__1SGZ3Zpqfw,17502575,rossi's pizza,4503 Monona Dr,4503.0,53716.0,43.0715089,-89.3264611,rocky rococo pan style pizza,"4556 Monona Drive, Madison, WI 53716",4556.0,53716.0,43.071,-89.3259,0
71396,MSrcYJoM9cNLS9-wfTZX3w,17797198,highland corner grill,"Best Western Plus InnTowner & Highland Club, 2424 University Ave",2424.0,53726.0,43.072493,-89.42778,chipotle mexican grill,"4000 University Ave, Madison, WI 53705",4000.0,53705.0,43.0757141,-89.4538486,0
60616,20mdLT6sAriyKs9oNouDDA,17503780,the taco bros,604 E University Ave,604.0,53715.0,43.0733915441,-89.3961464946,einstein bros bagels,"2701 University Ave, Unit D, Madison, WI 53705",2701.0,53705.0,43.0730116,-89.4341454,0
15969,vzqzoa-plufwTsQUwW_s6Q,17502247,pho nam noodle house,"610 Junction Rd, Ste 109",610.0,53717.0,43.0734853,-89.5267274,gyro house,"4601 Verona Rd, Madison, WI 53711",4601.0,53711.0,43.035,-89.4542,0
69062,tGeWVgHBoAXVuogF2fxOwg,17504074,aj's pizzeria and diner,300 S Main St,300.0,53593.0,42.9880198,-89.5336701,falbo bros pizzeria,"1219 W Main St, Sun Prairie, WI 53590",1219.0,53590.0,43.1799401343,-89.2335004359,0
13314,ibVJ52iBKcheyLNOPGU8jg,17502128,culver's,4301 E Towne Blvd,4301.0,53704.0,43.1253595,-89.3084414,culver's,"4301 E Towne Blvd, Madison, WI 53704",4301.0,53704.0,43.1253,-89.3086,1
10617,z04viA7AsFfzwT7ABwRLHg,17501999,chipotle mexican grill,4000 University Ave,4000.0,53705.0,43.0758066424,-89.4538423332,blue moon bar & grill,"2535 University Ave, Madison, WI 53705",2535.0,53705.0,43.0722,-89.4296,0
18154,-rLP6lfoQmOO_5Pf2bTkqg,17502341,lazy jane's,1358 Williamson St,1358.0,53703.0,43.0853653,-89.3617096,lazy jane's cafe & bakery,"1358 Williamson St, Madison, WI 53703",1358.0,53703.0,43.0853,-89.3616,1
8293,Lvg2y48cv7xFUJBqoUXmvw,17501878,happy grill mexican restaurant,"2810 E Washington Ave, Ste A",2810.0,53704.0,43.102869,-89.3457212,el mariachi mexican restaurant llc,"102 E Madison St Ste B, Lake Mills, WI 53551",102.0,53551.0,43.0814,-88.9114,0
3173,w_vkR8qzclBU15ygRc8jfQ,17501683,marsala's pizza and ristorante,421 E Main St,421.0,53589.0,42.916665,-89.215815,pizza hut,"633 S Main St, De Forest, WI 53532",633.0,53532.0,43.2414,-89.3435,0
27875,L772e6l2Yd0DJEyCBxBNng,17502631,state street brats,603 State St,603.0,53703.0,43.074776,-89.395948,state street brats,"603 State St, Madison, WI 53703",603.0,53703.0,43.0747,-89.3955,1
67593,wX8btbqgyFh0yHgmyR8ovA,17504023,monsoon siam,2045 Atwood Ave,2045.0,53704.0,43.0920677,-89.3535131,monsoon siam 2,"2045 Atwood Ave, Madison, WI 53704",2045.0,53704.0,43.0922657,-89.3539868,1
68342,8-5X-aC_OKrCeOcAjVSzIA,17504054,tater's cafe and chophouse,135 W Main St,135.0,53589.0,42.916505,-89.220899,main street cafe,"5 W Main St, Evansville, WI 53536",5.0,53536.0,42.78034,-89.2993,0
66565,VKN9XWN0KFz5P8YMzC1DKA,17503974,burrachos fresh mexican grill,"8333 Greenway Blvd, Suite 1000",8333.0,53562.0,43.0895299,-89.5256157,doolittles woodfire grill,"4323 E Towne Blvd, Madison, WI 53704",4323.0,53704.0,43.1254144,-89.3087671,0
8530,4Cj7zLIU47UY21yjdBGdtQ,17501883,a&w restaurant,4505 Lake Cir,4505.0,53598.0,43.1955564,-89.3441762,lake mills family restaurant,"962 Mulberry St, Lake Mills, WI 53551",962.0,53551.0,43.0852,-88.9016,0
44391,w_vkR8qzclBU15ygRc8jfQ,17503199,marsala's pizza and ristorante,421 E Main St,421.0,53589.0,42.916665,-89.215815,pizza pit,"330 W Main St, Sun Prairie, WI 53590",330.0,53590.0,43.1834,-89.2179,0
9504,t-LnJne10SHAWATKYdQdJQ,17501929,huhot mongolian grill,"610 Junction Rd, Ste 101",610.0,53717.0,43.0732552,-89.5266699,rp adler's pub & grill,"8202 Watts Rd, Madison, WI 53719",8202.0,53719.0,43.0557,-89.5255,0
14000,84WYW7OfV-IXUJk95EL5_Q,17502164,samba brazilian grill,"240 W Gilman St, Fl 2",240.0,53703.0,43.07546,-89.393063,echo tap & grill,"554 W Main St, Madison, WI 53703",554.0,53703.0,43.0687,-89.3907,0
34893,CqCWN9aBJf8YNJxyel7psg,17502869,glass nickel pizza,"5003 University Ave, Ste 170",5003.0,53705.0,43.075514738,-89.4666706186,pizza hut,"6771 University Ave Ste 101, Middleton, WI 53562",6771.0,53562.0,43.0969,-89.4985,0
2751,aC9D8lFr5k9pWU0IBdEb0g,17501668,chang jiang chinese kitchen,631 S Main St,631.0,53532.0,43.2394189,-89.3424846,chang jiang chinese kitchen,"631 S Main St, De Forest, WI 53532",631.0,53532.0,43.2414,-89.3435,1
25063,h98IJqWW0wVxwoLV03Azfw,17502524,mod pizza,"2960 Cahill Main, Ste 103",2960.0,53711.0,43.0169302,-89.4228617,pizza pit,"1860 E Washington Ave Ste C3, Madison, WI 53704",1860.0,53704.0,43.0915,-89.3605,0
18188,qou7HXpSiGdNzSmxhf59XA,17502341,4b cafe,"787 N Main St, Ste 106",787.0,53575.0,42.9383678,-89.3835669,lazy jane's cafe & bakery,"1358 Williamson St, Madison, WI 53703",1358.0,53703.0,43.0853,-89.3616,0
3159,z8MnefVbAKcIGN7BwDullA,17501683,domino's pizza,1585 W Main St,1585.0,53590.0,43.1778773,-89.2398226,pizza hut,"633 S Main St, De Forest, WI 53532",633.0,53532.0,43.2414,-89.3435,0
17484,Qiyd2ha1pivmsQhnFZgCxQ,17502313,kfc,7501 Mineral Point Road,7501.0,53717.0,43.0604,-89.5126,kfc,"7501 Mineral Point Rd, Madison, WI 53717",7501.0,53717.0,43.0605,-89.5129,1
27271,Y9Lsu_1dVNarV2wt1t5Cgw,17502591,growlers bar & grille,"Crowne Plaza Madison, 4402 E Washington Ave",4402.0,53704.0,43.1275033,-89.3094196,samba expresso bar,"240 W Gilman St, Madison, WI 53703",240.0,53703.0,43.0759,-89.3923,0
71028,JtJnFY3tThBoxpDMxLFLow,17757959,le petit croissant,1310 S Midvale Blvd,1310.0,53711.0,43.0383601531,-89.4519029194,le petit croissant,"1310 S Midvale Blvd, Madison, WI 53711",1310.0,53711.0,43.0382884,-89.4520829,1
35768,QR2V_Iutb9tEoXVBYPo-Kw,17502900,spinners pizza,"2125 McComb Rd, Ste 110",2125.0,53589.0,42.91747,-89.247405,casey's carry out pizza,"464 S John Paul Rd, Milton, WI 53563",464.0,53563.0,42.7744,-88.9619,0
52236,ISE6RcXsgPO1MgxypROEYg,17503449,northside family restaurant,1201 N Sherman Ave,1201.0,53704.0,43.1128465,-89.3637702,northside cafe,"1201 North Sherman Avenue, Madison, WI 53704",1201.0,53704.0,43.112855,-89.36359,1
41133,29uk0fZJAWdSQhWhasYI9A,17503040,tootsie's tap,115 E Main St,115.0,53529.0,43.250202,-89.499847,rosie's main tap incorporated,"121 S Main St, Oregon, WI 53575",121.0,53575.0,42.9256,-89.3848,0
8249,wwnuIvnVLgpEZOKzcdfDhw,17501876,cranberry creek catering & cafe,1501 Lake Point Dr,1501.0,53713.0,43.047893,-89.340121,capputan cafe llc,"120 E Lake St, Lake Mills, WI 53551",120.0,53551.0,43.0792,-88.9095,0
41031,i7MSJP4JH9yoNpbUsaV9_w,17503036,gumby's pizza & wings delivery hotline,449 State St Ste I,449.0,53703.0,43.074792,-89.393135,pizza hut,"954 Janesville St Ste 3, Oregon, WI 53575",954.0,53575.0,42.918,-89.3726,0
38318,bjgffjRaxLvgh9CJq1xxVg,17502986,blue spoon cafe,"2831 Parmenter St, Ste 140",2831.0,53562.0,43.1054335,-89.5106336,fink's cafe,"204 W Main St, Mount Horeb, WI 53572",204.0,53572.0,43.0087,-89.7406,0
48543,dVW4ToH3BThag6IdsqGVEQ,17503318,landmark,100 S Main St,100.0,53532.0,43.247335,-89.34407,r h landmark,"138 S Main St, Jefferson, WI 53549",138.0,53549.0,43.005,-88.8071,0
52224,oglIZt5mg2nErhpTH_AakQ,17503449,cafe la bellitalia,1026 N Sherman Ave,1026.0,53704.0,43.1113142622,-89.3640175794,northside cafe,"1201 North Sherman Avenue, Madison, WI 53704",1201.0,53704.0,43.112855,-89.36359,0
12724,c26Nbb6i7OeMCvg7Cs4QSw,17502105,fresh cool drinks,"University of Wisconsin Madison, 704-712 State St",704.0,53703.0,43.0749970121,-89.3979473412,cool beans coffee cafe,"1748 Eagan Rd, Madison, WI 53704",1748.0,53704.0,43.1242,-89.3087,0
1478,Lvg2y48cv7xFUJBqoUXmvw,17501609,happy grill mexican restaurant,"2810 E Washington Ave, Ste A",2810.0,53704.0,43.102869,-89.3457212,appletree family restaurant,"675 Park Ave, Columbus, WI 53925",675.0,53925.0,43.3342,-89.0195,0
40702,6nLuU3av6aQiLVXHNWLbew,17503030,sugar river pizza,"1019 River St, Ste 5",1019.0,53508.0,42.8753193,-89.5329802,maria's pizza,"134 S Main St, Oregon, WI 53575",134.0,53575.0,42.9254,-89.3844,0
40258,84WYW7OfV-IXUJk95EL5_Q,17503018,samba brazilian grill,"240 W Gilman St, Fl 2",240.0,53703.0,43.07546,-89.393063,sportsmans bar & grill,"506 1ST St, New Glarus, WI 53574",506.0,53574.0,42.8152,-89.6337,0
15109,LXVwq9kk7ThMVxsPtRjbjQ,17502188,zoe's pizzeria,"604 E Main St, Unit 6",604.0,53597.0,43.19139,-89.446031,falbo bros. pizzeria,"406 S Park St, Madison, WI 53715",406.0,53715.0,43.0733,-89.3969,0
37891,0jy1V32K1F_7bM8mu3nK5w,17502977,main street pub & grill,120 E Main St,120.0,53572.0,43.0086740632,-89.7376195907,dining room at 209 main,"209 N Main St, Monticello, WI 53570",209.0,53570.0,42.747341,-89.594695,0
48689,aKXzSFBrAoC_5kWUvjKGpg,17503320,wurst german bar,"Dane County Regional Airport, 4000 International Ln, Gate 5",4000.0,53704.0,43.1369425278,-89.3456934538,shortyz bar,"N3656 County Road K, Jefferson, WI 53549",3656.0,53549.0,42.9711,-88.8087,0
76868,h98IJqWW0wVxwoLV03Azfw,18444650,mod pizza,"2960 Cahill Main, Ste 103",2960.0,53711.0,43.0169302,-89.4228617,mod pizza,"2960 Cahill Main,Suite 130, Fitchburg, WI 53711",2960.0,53711.0,43.016994,-89.423055,1
57808,IXXERocY1bqGwRllcy8J2w,17503661,sophia's bakery & cafe,"831 E Johnson St, Ste 4",831.0,53703.0,43.0838052,-89.3768109,aldo's cafe,"330 Orchard St, Madison, WI 53715",330.0,53715.0,43.0726772,-89.4075483,0
52563,C63sF-wG4f1doMIMv2qvOg,17503457,cafe porta alba,"Hilldale Mall, 558 N Midvale Blvd",558.0,53705.0,43.0721304,-89.4512861,cafe porta alba,"558 N. Midvale Blvd (Hilldale Mall), Madison, WI 53705",558.0,53705.0,43.07212,-89.451384,1
27081,4DtGWbPfvfIL7czgBLPcXw,17502580,toppers pizza,7850 Mineral Point Rd,7850.0,53717.0,43.0609838524,-89.5187764987,rosati's pizza,"6644 Mineral Point Rd, Madison, WI 53705",6644.0,53705.0,43.0608,-89.4963,0
302,w53wITixOgDFWld-X1mMng,17501558,main depot tavern,627 W Main St,627.0,53703.0,43.0672802,-89.392125,arlington inn tavern,"226 Main St, Arlington, WI 53911",226.0,53911.0,43.3375,-89.3799,0
48105,qEWoqy5LGDsdr22R3Px8Pg,17503314,mcdonald's,4409 State Rd 19,4409.0,53598.0,43.194203,-89.338106,mcdonald's,"1423 State Rd 26, Jefferson, WI 53549",1423.0,53549.0,43.0225,-88.8079,0
26997,CqCWN9aBJf8YNJxyel7psg,17502579,glass nickel pizza,"5003 University Ave, Ste 170",5003.0,53705.0,43.075514738,-89.4666706186,rosati's pizza,"4933 Commercial Ave, Madison, WI 53704",4933.0,53704.0,43.1064,-89.2975,0
76659,MuLF5vPE73lGydhv-6xbtA,18386686,perkins restaurant & bakery,5237 University Ave,5237.0,53705.0,43.07865,-89.47178,lalo's mexican restaurant,"5510 University Avenue, Madison, WI 53705",5510.0,53705.0,43.083086,-89.475491,0
49791,XxnQKE9jTD0bTE3LZ5NOtQ,17503351,alchemy,1980 Atwood Ave,1980.0,53704.0,43.0924336,-89.3553898,alchemy,"1980 Atwood Ave., Madison, WI 53704",1980.0,53704.0,43.092282,-89.355459,1
8264,IXXERocY1bqGwRllcy8J2w,17501876,sophia's bakery & cafe,"831 E Johnson St, Ste 4",831.0,53703.0,43.0838052,-89.3768109,capputan cafe llc,"120 E Lake St, Lake Mills, WI 53551",120.0,53551.0,43.0792,-88.9095,0
29902,rECtpzeqtOdR5gIWiXoGfQ,17502745,jamerica caribbean restaurant,1236 Williamson St,1236.0,53703.0,43.0841543,-89.3633455,wah kee chinese noodle restaurant,"600 Williamson St, Madison, WI 53703",600.0,53703.0,43.0763,-89.3756,0
19884,IXXERocY1bqGwRllcy8J2w,17502395,sophia's bakery & cafe,"831 E Johnson St, Ste 4",831.0,53703.0,43.0838052,-89.3768109,mermaid cafe,"1929 Winnebago St, Madison, WI 53704",1929.0,53704.0,43.0912,-89.3556,0
5887,w_vkR8qzclBU15ygRc8jfQ,17501790,marsala's pizza and ristorante,421 E Main St,421.0,53589.0,42.916665,-89.215815,papa murphy's pizza,"2980 Cahill Main Ste 109, Fitchburg, WI 53711",2980.0,53711.0,43.0188,-89.4223,0
72204,jE5lfHPvsuNCJijXWaPqTw,17797215,madison club,5 E Wilson St,5.0,53703.0,43.072474,-89.380731,madison club,"5 E Wilson St, Madison, WI 53703",5.0,53703.0,43.072474,-89.380731,1
5314,sOs9goJyHT5Ggu1hTsp3kg,17501779,the great dane,2980 Cahill Main,2980.0,53711.0,43.0180908538,-89.4233251476,great dane pub & brewing,"2980 Cahill Main, Fitchburg, WI 53711",2980.0,53711.0,43.0187,-89.4223,1
38326,8-5X-aC_OKrCeOcAjVSzIA,17502986,tater's cafe and chophouse,135 W Main St,135.0,53589.0,42.916505,-89.220899,fink's cafe,"204 W Main St, Mount Horeb, WI 53572",204.0,53572.0,43.0087,-89.7406,0
61311,VYpXvGPkx2k0lZlGry3HQw,17503796,coach's club,1200 Main St,1200.0,53528.0,43.1142288,-89.6586593,mulligan's at lake mills golf club,"800 S Main St, Lake Mills, WI 53551",800.0,53551.0,43.0689211,-88.9136753,0
56614,98wHSByl7JRdrYcMuFfGeA,17503635,sjolinds chocolate house,"219 E Main St, Ste A",219.0,53572.0,43.0085249,-89.7372832,osaka house,"505 State St, Madison, WI 53703",505.0,53703.0,43.074684,-89.393861,0
50315,gsCOklDm1pbx3Tzo3W-mtw,17503380,el patron mexican grill,1303 W Main St,1303.0,53590.0,43.1793095,-89.2351404,mojo's sports pub & grill,"111 W Main St, Waunakee, WI 53597",111.0,53597.0,43.192042,-89.455413,0
59573,2RnF5hqGXd8CtGRqfTkaXA,17503734,the paoli schoolhouse shops,6857 Paoli Rd,6857.0,53508.0,42.9293242,-89.5241881,paoli cafe,"6895 Paoli Road, Belleville, WI 53508",6895.0,53508.0,42.92898,-89.52607,0
17907,Lvg2y48cv7xFUJBqoUXmvw,17502330,happy grill mexican restaurant,"2810 E Washington Ave, Ste A",2810.0,53704.0,43.102869,-89.3457212,lao laan xang restaurant,"2098 Atwood Ave, Madison, WI 53704",2098.0,53704.0,43.0928,-89.352,0
76347,tSzIHI6ioblP1WEQAQNbhw,18361614,wasabi japanese restaurant & sushi bar,449 State St,449.0,53703.0,43.0745126,-89.3933663,crandall's peruvian restaurant,"334 State Street, Madison, WI 53703",334.0,53703.0,43.0749248438,-89.3909799191,0
55885,aYjZc-3aVbPIPaJgGiUK_A,17503594,nostrano,111 S Hamilton St,111.0,53703.0,43.072631,-89.384011,nostrano,"111 S Hamilton St, Madison, WI 53703",111.0,53703.0,43.072724,-89.384084,1
9922,wbia2cGn5pUSCZGLYTu0kw,17501965,portage pi cafe & juice bar,"Graduate Madison, 601 Langdon St",601.0,53703.0,43.075514,-89.395657,badgerland bar & grill,"525 W Johnson St, Madison, WI 53703",525.0,53703.0,43.0719,-89.3944,0
43085,Syy4Gr1JrxICbiDm64go3Q,17503126,holstein kitchen,101 S Main St,101.0,53575.0,42.9262305,-89.3847435,main street kitchen,"334 E Main St, Stoughton, WI 53589",334.0,53589.0,42.9168,-89.2174,0
25052,GEL7svZLFqx9NWq3aOtz_Q,17502524,pita pit,"449 State St, Ste B/L3",449.0,53703.0,43.0745126,-89.3933663,pizza pit,"1860 E Washington Ave Ste C3, Madison, WI 53704",1860.0,53704.0,43.0915,-89.3605,0
69749,RCfpKRSP5o04gdzy7Vhnqw,17504096,jodi's bar and grill,1821 Main St,1821.0,53528.0,43.1140164634,-89.6505199,dam bar,"3 E Main St, Belleville, WI 53508",3.0,53508.0,42.859923,-89.533805,0
70757,15LVDu1_v97JEx-g97wnfA,17504136,salvatore's tomato pies,912 E Johnson St,912.0,53703.0,43.0848916371,-89.3759002537,salvatore's tomato pies (madison),"912 E Johnson St, Madison, WI 53703",912.0,53703.0,43.0848133,-89.3760907,1
32069,5_a8VF9MQ2rkNg7GR8MGfg,17502794,culver's,4700 Farwell St,4700.0,53558.0,43.0137642,-89.3021944,culver's,"4700 Farwell St, Mc Farland, WI 53558",4700.0,53558.0,43.0137,-89.3025,1
