_id,ltable_business_id,rtable_id,ltable_name,ltable_address,ltable_address_num,ltable_postal_code,ltable_latitude,ltable_longitude,rtable_name,rtable_address,rtable_address_num,rtable_zipcode,rtable_latitude,rtable_longitude,gold_labels
35280,biQlddhmaimJ9KRVi_s_1g,17502888,three sisters old town inn,2227 Parmenter St,2227.0,53562.0,43.0999215,-89.5111795,three sisters' inn,"2227 Parmenter St, Middleton, WI 53562",2227.0,53562.0,43.0996449,-89.5114569,1
68355,bjgffjRaxLvgh9CJq1xxVg,17504054,blue spoon cafe,"2831 Parmenter St, Ste 140",2831.0,53562.0,43.1054335,-89.5106336,main street cafe,"5 W Main St, Evansville, WI 53536",5.0,53536.0,42.78034,-89.2993,0
31286,1iS-pzwKiNF21UWHl9Rl5g,17502776,macchiatos coffee & wine bar,605 S Main St,605.0,53532.0,43.2416769,-89.3437155,silver fox bar,"118 E Main St, Marshall, WI 53559",118.0,53559.0,43.1671,-89.0635,0
10222,cCBySJPR4i7WFfEt8gjArg,17501972,bahn thai restaurant,944 Williamson St,944.0,53703.0,43.0806833,-89.3684867,bandung indonesian restaurant,"600 Williamson St, Madison, WI 53703",600.0,53703.0,43.0763,-89.3756,0
33496,QAVeDSZsoViw8V2gAewfbg,17502834,cosi,8310 Greenway Blvd,8310.0,53562.0,43.0907846895,-89.5255461719,cosi,"8310 Greenway Blvd Ste 106, Middleton, WI 53562",8310.0,53562.0,43.0903,-89.525,1
17245,VgGO13Fx7dQj4zg3IuVDLw,17502302,blue moon bar & grill,2535 University Ave,2535.0,53705.0,43.0721453,-89.4296808,johnny o's restaurant & bar,"622 University Ave, Madison, WI 53715",622.0,53715.0,43.0733,-89.3969,0
47222,4ZalERS8GVHK_1ULa86rMQ,17503281,rex's innkeeper,301 N Century Ave,301.0,53597.0,43.194426,-89.462358,rex's innkeeper,"301 N Century Ave, Waunakee, WI 53597",301.0,53597.0,43.194,-89.462,1
53821,jzr6jW5cQ0jpPhEo4kGMBw,17503512,longhorn steakhouse,418 S Gammon Rd,418.0,53719.0,43.0594110063,-89.5035026245,longhorn steakhouse,"418 South Gammon Road, Madison, WI 53719",418.0,53719.0,43.058867,-89.503097,1
25821,84WYW7OfV-IXUJk95EL5_Q,17502546,samba brazilian grill,"240 W Gilman St, Fl 2",240.0,53703.0,43.07546,-89.393063,qdoba mexican grill,"548 State St, Madison, WI 53703",548.0,53703.0,43.0749,-89.3945,0
36722,6Qpo9mVLl60gu-ajJvcBLQ,17502944,happy wok,2409 W Broadway,2409.0,53713.0,43.044919,-89.349625,happy wok,"2409 W Broadway, Monona, WI 53713",2409.0,53713.0,43.0464,-89.351,1
3197,FuVGP7x3pib95GGrN8irew,17501683,pizza pit,1060 W Main St,1060.0,53589.0,42.918072,-89.233059,pizza hut,"633 S Main St, De Forest, WI 53532",633.0,53532.0,43.2414,-89.3435,0
28388,cRDEkJWuXpKzuSYUpmyX5w,17502663,subway,6602 Mineral Point Rd,6602.0,53705.0,43.061398,-89.495884,subway,"N High Point Rd AT Old Sauk Rd, Madison, WI 53717",53717.0,53717.0,43.075,-89.5186,0
58368,cf0LXwdYZ_9y0BVK-un9ow,17503692,francisco's mexican cantina,121 E Main St,121.0,53703.0,43.0750544,-89.3810002,francisco's cantina,"121 E Main St, Madison, WI 53703",121.0,53703.0,43.074719,-89.381592,1
32655,5knOqCWniwFbDlznijP3bQ,17502806,little caesars pizza,1334 W Main St,1334.0,53590.0,43.1794029,-89.2363971,spartan pizza,"5813 Main St, Mc Farland, WI 53558",5813.0,53558.0,43.0146,-89.2887,0
69524,QwGV_v3s9eOMzfWrFLUf6A,17504085,whole foods market,3313 University Ave,3313.0,53705.0,43.0747957,-89.4441049,badger market in medical sciences,"1300 University Ave, Madison, WI 53706",1300.0,53706.0,43.0738059,-89.4073698,0
75521,NlzU1RxfXaWF6ir-ZWfrLg,18224280,madison cuisine,785 University Ave,785.0,53715.0,43.0730148,-89.3984019,madison cuisine,"785 University Ave Madison, WI 53718",785.0,53718.0,43.0730458945,-89.3983801338,1
10479,ToNd6fEn_SvcQc1Fulsidg,17501989,milio's sandwiches,4292 E Towne Blvd,4292.0,53704.0,43.1258907,-89.3103284,milio's,"4292 E Towne Blvd, Madison, WI 53704",4292.0,53704.0,43.1251,-89.3094,1
64498,wEisic-u9Yj543iYzfpAhw,17503925,la mestiza,6644 Odana Rd,6644.0,53719.0,43.056038,-89.4941951,la michoacana,"6712 Odana Road, Madison, WI 53719",6712.0,53719.0,43.0566445,-89.4974411,0
6196,HfQm-rq78QfSeJmm0i1I9Q,17501796,qdoba mexican eats,5401 Caddis Bend Rd,5401.0,53711.0,43.0192212688,-89.4200205803,qdoba mexican grill,"5401 Caddis Bnd, Fitchburg, WI 53711",5401.0,53711.0,43.0193,-89.4197,1
17665,9BeOKr8DGzDEmdoe-FzQbg,17502318,kennedy manor dining room & bar,"1 Langdon St, Ste 103",1.0,53703.0,43.07836,-89.3897099,kennedy manor dining room & br,"1 Langdon St Ste 1, Madison, WI 53703",1.0,53703.0,43.0786,-89.3896,1
41987,Xu6mEU7IbKlWic1ETgUOeA,17503079,nadia's restaurant & grapevine lounge,508 State St,508.0,53703.0,43.0751832,-89.3936346,arboretum lounge,"7888 State Road 188, Sauk City, WI 53583",7888.0,53583.0,43.2874,-89.71,0
17562,qnuBmj3lL_S_QQOmTI9cfw,17502314,orpheum lobby restaurant,216 State St,216.0,53703.0,43.0748942,-89.3886553,kabul afghanistan restaurant,"540 State St, Madison, WI 53703",540.0,53703.0,43.0747,-89.3943,0
60376,lw_vRdg4qUprQEgWDG6czQ,17503763,hooters,2639 E Springs Dr,2639.0,53704.0,43.1320765,-89.3015005,hooters,"2639 E Springs Drive, Madison, WI 53704",2639.0,53704.0,43.131951,-89.301399,1
69392,IXXERocY1bqGwRllcy8J2w,17504081,sophia's bakery & cafe,"831 E Johnson St, Ste 4",831.0,53703.0,43.0838052,-89.3768109,open book cafe,"600 N Park St, Madison, WI 53706",600.0,53706.0,43.0767057,-89.4010609,0
48478,hwjbr0Qskx_qWqx1de5gTg,17503317,pizza pit,611 S Main St,611.0,53532.0,43.2414099,-89.3437115,pizza pit extreme,"128 S Main St, Jefferson, WI 53549",128.0,53549.0,43.005,-88.8071,0
28682,NiBzh0kHusvH5rdnpm7yVw,17502685,bandung indonesian restaurant,"600 Williamson St, Ste M",600.0,53703.0,43.076604,-89.3745656,taj indian restaurant,"1256 S Park St, Madison, WI 53715",1256.0,53715.0,43.0533,-89.3963,0
71370,X0siHN0KchBjGKn9QsEAFg,17797198,vintage spirits & grill,529 University Ave,529.0,53703.0,43.0729361,-89.3954456,chipotle mexican grill,"4000 University Ave, Madison, WI 53705",4000.0,53705.0,43.0757141,-89.4538486,0
3528,xIYTia1c4IUFxIQlBItasA,17501692,aztlan mexican grill,407 W Main St,407.0,53572.0,43.007059,-89.746169,deerfield pub & grill,"15 N Main St, Deerfield, WI 53531",15.0,53531.0,43.053,-89.0755,0
25085,4BfmLcy9iMJSsFFKzyIfKQ,17502524,pizza hut,300 N Century Ave,300.0,53597.0,43.1936968,-89.4617636,pizza pit,"1860 E Washington Ave Ste C3, Madison, WI 53704",1860.0,53704.0,43.0915,-89.3605,0
2076,yfvldEvsIfzcvWqmU8un3w,17501642,heritage bakery & cafe,4674 Cottage Grove Rd,4674.0,53716.0,43.0843503,-89.2998239,village cafe,"214 W Cottage Grove Rd, Cottage Grove, WI 53527",214.0,53527.0,43.0866,-89.2021,0
60047,6nLuU3av6aQiLVXHNWLbew,17503758,sugar river pizza,"1019 River St, Ste 5",1019.0,53508.0,42.8753193,-89.5329802,famous yeti's pizza,"971 N Page St, Stoughton, WI 53589",971.0,53589.0,42.9266576,-89.2225748,0
19026,b_PiGpk0PZyBpckb1TFITg,17502359,madison sourdough patisserie,916 Williamson St,916.0,53703.0,43.0800604,-89.3694798,madison sourdough company,"916 Williamson St, Madison, WI 53703",916.0,53703.0,43.079858,-89.369433,1
50429,WvuBDIZTmQGfoTAgW-pNPw,17503380,hop's house eatery & pub,209 E Main St,209.0,53572.0,43.0083371,-89.7377101,mojo's sports pub & grill,"111 W Main St, Waunakee, WI 53597",111.0,53597.0,43.192042,-89.455413,0
7838,A9rIqoqp5OO_56w82PiHEA,17501854,pizza ranch,682 S Grand Ave,682.0,53590.0,43.1710665848,-89.2660852253,pizza villa,"109 Sherman Ave W, Fort Atkinson, WI 53538",109.0,53538.0,42.92956,-88.839345,0
25729,kWItkhjHRuzfC11CP1E0ZQ,17502545,lalo's mexican restaurant,5510 University Ave,5510.0,53705.0,43.0831080044,-89.4756475836,qdoba mexican grill,"2741 University Ave, Madison, WI 53705",2741.0,53705.0,43.0736,-89.4349,0
24821,YsxyAYrg2LdMvf7nhp39Ow,17502521,dahmen's pizza place,6654 Mineral Point Rd,6654.0,53705.0,43.0609491,-89.4968068,pizza hut,"7440 Mineral Point Rd, Madison, WI 53717",7440.0,53717.0,43.0608,-89.5111,0
66861,mMoOtnrOEKqRrcWJikM9xg,17503994,rocky rococo pan style pizza - sun prairie,2828 Prairie Lakes Dr,2828.0,53590.0,43.166656,-89.266473,godfather's pizza,"103 Prairie Oaks Drive, Verona, WI 53593",103.0,53593.0,43.003385,-89.532736,0
16630,vahVdHsH5HjThT0Sa2mThQ,17502269,wilson's bar,2144 Atwood Ave,2144.0,53704.0,43.093214,-89.350403,ideal bar,"1968 Atwood Ave, Madison, WI 53704",1968.0,53704.0,43.092,-89.3559,0
25080,iNphZPJ8kjvjUvWK7zXkSA,17502524,domino's pizza,6915 University Ave,6915.0,53562.0,43.0969955,-89.5008508,pizza pit,"1860 E Washington Ave Ste C3, Madison, WI 53704",1860.0,53704.0,43.0915,-89.3605,0
10312,5paKcA2AAguJgZYBkr-I7A,17501976,cargo coffee east,750 E  Washington,750.0,53704.0,43.0806001659,-89.3760845032,barriques coffee,"127 W Washington Ave, Madison, WI 53703",127.0,53703.0,43.0736,-89.3854,0
68373,UxhEJdt0iacusZP1gmNZAg,17504056,belleville ale house,7 W Main St,7.0,53508.0,42.859945,-89.534453,watertower chop house,"109 W Main St, Sun Prairie, WI",109.0,,43.1832054,-89.2140966,0
56930,imks3kk22agRE-N2BRkH1w,17503638,monk's bar & grill,8313 Murphy Dr,8313.0,53562.0,43.0974812,-89.524171,monk's bar & grill - middleton,"8313 Murphy Dr, Middleton, WI 53562",8313.0,53562.0,43.0985657,-89.5244317,1
2006,HaRB76OqxMZ28snURM9tFw,17501639,papa bear's bbq,4527 Cottage Grove Rd,4527.0,53716.0,43.084097,-89.3045168,papa jimmy's pizzeria,"224 West Cottage Grove Rd, Cottage Grove, WI 53527",224.0,53527.0,43.0863299,-89.2039999,0
27313,wbia2cGn5pUSCZGLYTu0kw,17502591,portage pi cafe & juice bar,"Graduate Madison, 601 Langdon St",601.0,53703.0,43.075514,-89.395657,samba expresso bar,"240 W Gilman St, Madison, WI 53703",240.0,53703.0,43.0759,-89.3923,0
50461,FDSl04CJhMXhVT5rT7-pjg,17503380,j & m bar and grill,127 W Main St,127.0,53508.0,42.860019,-89.536184,mojo's sports pub & grill,"111 W Main St, Waunakee, WI 53597",111.0,53597.0,43.192042,-89.455413,0
15880,GnODIDJz09LecpudDoynCg,17502238,greenbush bar,914 Regent St,914.0,53715.0,43.067873,-89.401811,greenbush bakery,"1305 Regent Street, Madison, WI 53715",1305.0,53715.0,43.0676,-89.4076,0
28252,-mst4KdHEmeF3Qm0Xfouhw,17502648,subway,"6000 Monona Dr, Ste 100",6000.0,53716.0,43.0539464275,-89.3249382824,subway,"2402 E Springs Dr Ste 200, Madison, WI 53704",2402.0,53704.0,43.1301,-89.2958,0
54813,ZKqbygpsDNOacLvoK2T2tQ,17503544,game time sports bar and grill,6862 County Road K,6862.0,53562.0,43.1407496,-89.5211137,aztalan inn bar & grill,"W6630 County Road B, Lake Mills, WI 53551",6630.0,53551.0,43.073004,-88.862005,0
23524,Lvg2y48cv7xFUJBqoUXmvw,17502504,happy grill mexican restaurant,"2810 E Washington Ave, Ste A",2810.0,53704.0,43.102869,-89.3457212,perkins restaurant & bakery,"258 Corporate Dr Ste 205, Madison, WI 53714",258.0,53714.0,43.1022,-89.3178,0
171,bjgffjRaxLvgh9CJq1xxVg,17501546,blue spoon cafe,"2831 Parmenter St, Ste 140",2831.0,53562.0,43.1054335,-89.5106336,edgewater cafe,"101 N Water St, Albany, WI 53502",101.0,53502.0,42.7086,-89.4387,0
58615,QwGV_v3s9eOMzfWrFLUf6A,17503699,whole foods market,3313 University Ave,3313.0,53705.0,43.0747957,-89.4441049,fresh madison market,"703 University Ave, Madison, WI 53715",703.0,53715.0,43.073071,-89.397542,0
19734,bjgffjRaxLvgh9CJq1xxVg,17502390,blue spoon cafe,"2831 Parmenter St, Ste 140",2831.0,53562.0,43.1054335,-89.5106336,mediterranean cafe,"625 State St, Madison, WI 53703",625.0,53703.0,43.0747,-89.3959,0
75348,w53wITixOgDFWld-X1mMng,18087947,main depot tavern,627 W Main St,627.0,53703.0,43.0672802,-89.392125,depot cafe,"20 S Main Street, Edgerton, WI, WI 53534",20.0,53534.0,42.8322795,-89.0705484,0
44382,GEL7svZLFqx9NWq3aOtz_Q,17503199,pita pit,"449 State St, Ste B/L3",449.0,53703.0,43.0745126,-89.3933663,pizza pit,"330 W Main St, Sun Prairie, WI 53590",330.0,53590.0,43.1834,-89.2179,0
15652,9XtyBTgenMERfl4hDgnDwA,17502233,china palace,1291 N Sherman Ave,1291.0,53704.0,43.1137346,-89.3637978,great china,"619 N Sherman Ave, Madison, WI 53704",619.0,53704.0,43.1087,-89.3637,0
49797,EOlHhLgp32dCdSlsMpiG6A,17503354,five guys burgers and fries,517 State St,517.0,53703.0,43.0746782,-89.3943516,five guys burgers and fries,"517 State St., Madison, WI 53703",517.0,53703.0,43.074626,-89.394048,1
15056,QxqMKO5IZCQUUWIx8nTDJw,17502187,colectivo coffee,583 State St,583.0,53703.0,43.0748669,-89.395633,fair trade coffee house,"418 State St, Madison, WI 53703",418.0,53703.0,43.0749,-89.3921,0
7910,V5K2K2U0JaBL5UPaZYJkSQ,17501855,el burrito loco restaurant,745 N High Point Rd,745.0,53717.0,43.0760775,-89.5184744,river front family restaurant,"1317 N High St, Fort Atkinson, WI 53538",1317.0,53538.0,42.9423,-88.828,0
43084,ZZr9W_LtZeR1-KrmaVt62Q,17503126,ace's main tap,121 S Main St,121.0,53575.0,42.9258232876,-89.3846596781,main street kitchen,"334 E Main St, Stoughton, WI 53589",334.0,53589.0,42.9168,-89.2174,0
75042,COnqdubhr87gCDJjPGwT6A,17878923,freska mediterranean grill,"8310 Greenway Blvd, Ste 104",8310.0,53562.0,43.0906254,-89.5255632,freska mediterranean grill,"8310 Greenway Boulevard, WI 53562",8310.0,53562.0,43.090356,-89.525418,1
30224,wbia2cGn5pUSCZGLYTu0kw,17502755,portage pi cafe & juice bar,"Graduate Madison, 601 Langdon St",601.0,53703.0,43.075514,-89.395657,willalby's cafe,"1351 Williamson St, Madison, WI 53703",1351.0,53703.0,43.085,-89.3615,0
34643,n5BPR_prEPB4B3lxUpoX4g,17502864,papa john's pizza,515 University Ave,515.0,53703.0,43.072826,-89.394966,papa john's pizza,"6615 University Ave, Middleton, WI 53562",6615.0,53562.0,43.0957,-89.4947,0
45869,uLnPW9K1yhNpgzvodCumbQ,17503230,gray's tied house,950 Kimball Ln,950.0,53593.0,42.9791556,-89.5162369,grays tied house,"950 Kimball Ln, Verona, WI 53593",950.0,53593.0,42.9791,-89.5158,1
64514,Lvg2y48cv7xFUJBqoUXmvw,17503926,happy grill mexican restaurant,"2810 E Washington Ave, Ste A",2810.0,53704.0,43.102869,-89.3457212,minerva indian restaurant,"515 Junction Rd Ste A, Madison, WI 53717",515.0,53717.0,43.071621,-89.5248987,0
68692,t-LnJne10SHAWATKYdQdJQ,17504067,huhot mongolian grill,"610 Junction Rd, Ste 101",610.0,53717.0,43.0732552,-89.5266699,headquarters bar & grill,"101 Concord Dr, Oregon, WI 53575",101.0,53575.0,42.916602,-89.37284,0
24246,Ev142kLmV_ASI9iAl-KfKA,17502510,pizza pit extreme,1614 Monroe St,1614.0,53711.0,43.06713,-89.414179,pizza pit extreme,"1614 Monroe St., Madison, WI 53711",1614.0,53711.0,43.067,-89.4142,1
62035,y2YHddCEO-OLukNppajGIQ,17503823,double s bbq,1835 Monroe St,1835.0,53711.0,43.0649127,-89.4167127,double s bbq,"1835 Monroe St, Madison, WI 53711",1835.0,53711.0,43.064981,-89.416837,1
16909,rECtpzeqtOdR5gIWiXoGfQ,17502285,jamerica caribbean restaurant,1236 Williamson St,1236.0,53703.0,43.0841543,-89.3633455,jamerica restaurant,"1236 Williamson St, Madison, WI 53703",1236.0,53703.0,43.0839,-89.3638,1
60649,Y2TCGnkXJ1BmxMKLR1r8Jw,17503781,geier's grill,"Holiday Inn Madison At The American Center, 5109 W Terrace Dr",5109.0,53718.0,43.1424343,-89.2963512,geier's grill,"5109 W Terrace Dr, Madison, WI 53718",5109.0,53718.0,43.141353,-89.296349,1
4566,eYE7zd30ltLAS1V3ssdtrQ,17501745,tip top tavern,601 N North St,601.0,53704.0,43.107164,-89.351047,red barn tavern,"7530 North County Road M, Evansville, WI 53536",7530.0,53536.0,42.7813,-89.2744,0
34125,C16dsL_IEOb5UzRWYhxiKw,17502849,grand china restaurant,2608 Allen Blvd,2608.0,53562.0,43.1035561,-89.4864809,imperial garden chinese restaurant,"2039 Allen Boulevard, Middleton, WI 53562",2039.0,53562.0,43.0908,-89.4855,0
55721,aLZTOa5e2ON9mmDQcw6GtQ,17503581,panchero's mexican grill,402 S Gammon Rd,402.0,53719.0,43.0601747344,-89.5034033688,panchero's mexican grill,"402 S Gammon Road, Madison, WI 53719",402.0,53719.0,43.060306,-89.503043,1
57168,wbia2cGn5pUSCZGLYTu0kw,17503649,portage pi cafe & juice bar,"Graduate Madison, 601 Langdon St",601.0,53703.0,43.075514,-89.395657,cafe o,"611 Langdon St, Madison, WI 53703",611.0,53703.0,43.075635,-89.395702,0
51122,wsmVIHJEi9J_38dXx2qLKA,17503408,bunky's cafe,2425 Atwood Ave,2425.0,53704.0,43.0936656,-89.3461227,daisy cafe and cupcakery,"2827 Atwood Dr., Madison, WI 53704",2827.0,53704.0,43.093736,-89.343105,0
73059,jP6xmjbQRfUitOmv5PKuJA,17797231,cranberry creek take-out & catering,114 E Main St,114.0,53703.0,43.0751123627,-89.3815667555,spring creek restaurant,"118 S Main St, Lodi, WI 53555",118.0,53555.0,43.313279,-89.526518,0
70522,t-LnJne10SHAWATKYdQdJQ,17504125,huhot mongolian grill,"610 Junction Rd, Ste 101",610.0,53717.0,43.0732552,-89.5266699,twist bar & grill,"6617 Odana Rd, Madison, WI 53719",6617.0,53719.0,43.054689,-89.496055,0
9117,1iS-pzwKiNF21UWHl9Rl5g,17501901,macchiatos coffee & wine bar,605 S Main St,605.0,53532.0,43.2416769,-89.3437155,coffee grounds of lodi,"801 N Main St Ste D, Lodi, WI 53555",801.0,53555.0,43.3204,-89.5342,0
20294,b5uN4oS-VZh8i2ETkZ3-8A,17502406,milio's sandwiches,"8333 Greenway Blvd, Ste 120",8333.0,53562.0,43.0898458,-89.5265018,milio's sandwiches,"116 Martin Luther King Jr Blvd, Madison, WI 53703",116.0,53703.0,43.0736,-89.383,0
53151,-pV9kWNoA9vyHfM_auYecA,17503480,the cooper's tavern,20 W Mifflin St,20.0,53703.0,43.075216,-89.386276,cooper's tavern,"20 W. Mifflin, Madison, WI 53703",20.0,53703.0,43.075386,-89.38557,1
14199,E3zvCzX7gquT9srY4pUwLg,17502171,el rancho mexican grill,819 S Park St,819.0,53715.0,43.0588605,-89.4000633,el pastor,"2010 S Park St, Madison, WI 53713",2010.0,53713.0,43.0439,-89.3942,0
66667,qd1QvLRMJMPRQIdhyWmhRg,17503988,china wok,"204 S Century Ave, Unit A6",204.0,53597.0,43.1895553,-89.4614377,magic wok,"2044 Atwood Ave, Madison, WI 53704",2044.0,53704.0,43.092519,-89.353881,0
33548,hwiQp_Tkbyr8HasV8oUxvA,17502841,falbo bros. pizzeria,3301 Parmenter St,3301.0,53562.0,43.1105543572,-89.5092128239,falbo bros pizzeria,"3301 Parmenter St, Middleton, WI 53562",3301.0,53562.0,43.1106707,-89.5091031,1
54700,XnFPzFiLZ8wKWZsmzGjvCQ,17503540,argus,123 E Main St,123.0,53703.0,43.075104,-89.3810381,argus bar grille,"123 E. Main St., Madison, WI 53703",123.0,53703.0,43.074729,-89.381576,1
25655,t-NF_3LecjuOlwiK-Gx2KQ,17502541,potbelly sandwich shop,4833 Annamark Dr,4833.0,53704.0,43.1336297,-89.2995085,potbelly sandwich shop,"4833 Annamark Dr, Madison, WI 53704",4833.0,53704.0,43.1319,-89.2999,1
27862,jz_q2_QTq_CdDbOtY2FSXg,17502625,starbucks,3515 University Ave,3515.0,53705.0,43.0748689,-89.4474868,starbucks,"3515 University Ave, Madison, WI 53705",3515.0,53705.0,43.0752,-89.4467,1
12934,P3Nl2QTfUtoe8-alSSh-9w,17502113,silver mine subs,"2601 W Beltline Hwy, Ste 106",2601.0,53713.0,43.0345363,-89.4221744,cousins subs,"106 S Webster St, Madison, WI 53703",106.0,53703.0,43.0159,-89.4287,0
25100,Qn2uD06olrxL_43_4G_Hqg,17502524,rosati's authentic chicago pizza,4933 Commercial Ave,4933.0,53704.0,43.1055563606,-89.2966957014,pizza pit,"1860 E Washington Ave Ste C3, Madison, WI 53704",1860.0,53704.0,43.0915,-89.3605,0
37885,oyjibcwohyExYYp8lMJ7eA,17502977,charlie's on main,113 S Main St,113.0,53575.0,42.9259569,-89.384765,dining room at 209 main,"209 N Main St, Monticello, WI 53570",209.0,53570.0,42.747341,-89.594695,0
32505,rziLQ_IrRbZMPb3QxCIWUA,17502803,pizza hut,1424 Us Highway 51,1424.0,53589.0,42.9186593,-89.2380762,pizza hut,"5720 US Hwy 51, Mc Farland, WI 53558",5720.0,53558.0,43.0196,-89.3001,0
75555,Iq1P8S3--gqd50xoQJxpqA,18272971,bowl of heaven,"Hilldale Shopping Ctr, 717 Hilldale Way",717.0,53705.0,43.0729301199,-89.4532138687,bowl of heaven,"Hilldale Shopping Center , 717 Hilldale Way, Madison, WI 53705",717.0,53705.0,43.072732,-89.453316,1
58603,OGg60MuC7fTlPaepWqB4bg,17503699,wings over madison,2739 University Ave,2739.0,53705.0,43.0737170375,-89.4354120167,fresh madison market,"703 University Ave, Madison, WI 53715",703.0,53715.0,43.073071,-89.397542,0
13983,RCfpKRSP5o04gdzy7Vhnqw,17502164,jodi's bar and grill,1821 Main St,1821.0,53528.0,43.1140164634,-89.6505199,echo tap & grill,"554 W Main St, Madison, WI 53703",554.0,53703.0,43.0687,-89.3907,0
11492,mswIIlZm3ji6lLAjI3mKBQ,17502028,bub's burger joint,2810 E Washington,2810.0,53704.0,43.102942,-89.345949,burger king,"2655 E Washington Ave, Madison, WI 53704",2655.0,53704.0,43.1012,-89.3477,0
13838,NiBzh0kHusvH5rdnpm7yVw,17502161,bandung indonesian restaurant,"600 Williamson St, Ste M",600.0,53703.0,43.076604,-89.3745656,edo japanese restaurant,"532 S Park St, Madison, WI 53715",532.0,53715.0,43.0616,-89.401,0
58042,RxacBKbziwvC5afDcZS5zg,17503686,the university club,803 State St,803.0,53703.0,43.0746989519,-89.3992268386,university club,"803 State St., Madison, WI 53703",803.0,53703.0,43.074751,-89.399029,1
64110,3uFye5VlDqtBU5_TzSulyA,17503910,viet house,2817 E Washington Ave,2817.0,53704.0,43.1028868,-89.3447941,the spot/gyro house,"2702 East Washington Avenue, Madison, WI 53704",2702.0,53704.0,43.1021873,-89.3471383,0
45130,Lvg2y48cv7xFUJBqoUXmvw,17503218,happy grill mexican restaurant,"2810 E Washington Ave, Ste A",2810.0,53704.0,43.102869,-89.3457212,5th quarter sports bar & grill,"161 Horizon Dr Ste 110, Verona, WI 53593",161.0,53593.0,42.9945,-89.5243,0
14226,84WYW7OfV-IXUJk95EL5_Q,17502172,samba brazilian grill,"240 W Gilman St, Fl 2",240.0,53703.0,43.07546,-89.393063,eldorado grill,"744 Williamson St, Madison, WI 53703",744.0,53703.0,43.0778,-89.3723,0
75412,eQL6UKYvkWERh21rF0Blnw,18201214,moe's tavern & grill,118 State St,118.0,53703.0,43.0747406,-89.3865796,naf naf grill,"555 State Street, Madison",555.0,,43.0748190442,-89.394893262,0
5552,JvCSGmN8gS-kNh9xLgLC1Q,17501785,milio's sandwiches,2932 Fish Hatchery Rd,2932.0,53713.0,43.0277258,-89.4128253,milio's sandwiches,"2932 Fish Hatchery Rd, Fitchburg, WI 53713",2932.0,53713.0,43.0282,-89.4116,1
11370,Ie00N1yErrmaOa44x5K8kA,17502021,itzza pizza,2825 University Ave,2825.0,53705.0,43.0741404,-89.4374257,buck's pizza,"5502 University Ave, Madison, WI 53705",5502.0,53705.0,43.082783,-89.475302,0
43416,qSZa_skrz3CchQ1yqCa42Q,17503137,sole & sapori pizza,209 E Main St,209.0,53572.0,43.0083259,-89.737673,pizza pit,"1060 W Main St, Stoughton, WI 53589",1060.0,53589.0,42.9169,-89.2324,0
43886,jF3zUwEWluI2ZPzkke9mXA,17503174,la bella pizza & pasta,407 W Main St,407.0,53572.0,43.007059,-89.746169,glass nickel pizza co,"101 W Main St, Sun Prairie, WI 53590",101.0,53590.0,43.1832,-89.2138,0
53932,O6bQ22yfG5Q3BAL8pWuaSw,17503518,tex tubb's taco palace,2701 University Ave,2701.0,53705.0,43.0730116,-89.4341454,the taco shop,"604 University Ave, Madison, WI 53715",604.0,53715.0,43.07326,-89.396068,0
7213,84WYW7OfV-IXUJk95EL5_Q,17501822,samba brazilian grill,"240 W Gilman St, Fl 2",240.0,53703.0,43.07546,-89.393063,black hawk tavern & grill,"200 S Main St, Fort Atkinson, WI 53538",200.0,53538.0,42.9268,-88.8372,0
34577,9ySFD8tMkeuTclyWfanI9w,17502864,buck's pizza,5502 University Ave,5502.0,53711.0,43.0828269,-89.4752687,papa john's pizza,"6615 University Ave, Middleton, WI 53562",6615.0,53562.0,43.0957,-89.4947,0
52573,wbia2cGn5pUSCZGLYTu0kw,17503457,portage pi cafe & juice bar,"Graduate Madison, 601 Langdon St",601.0,53703.0,43.075514,-89.395657,cafe porta alba,"558 N. Midvale Blvd (Hilldale Mall), Madison, WI 53705",558.0,53705.0,43.07212,-89.451384,0
76135,lzD08INl2DDUcDGHXsMkmA,18353576,cafe assisi,"254 W. Gilman Street, Second Floor",254.0,53703.0,43.0751696,-89.3935408,cafe costa rica,"731 State Street, Madison, WI 53703",731.0,53703.0,43.074655,-89.39869,0
29021,oSrTdvRGrJ24ofcquIFoPA,17502689,takumi japanese restaurant,4222 E Towne Blvd,4222.0,53704.0,43.124856371,-89.3101472672,takumi japanese restaurant,"4222 E Towne Blvd, Madison, WI 53704",4222.0,53704.0,43.1246,-89.3102,1
18955,NlzU1RxfXaWF6ir-ZWfrLg,17502356,madison cuisine,785 University Ave,785.0,53715.0,43.0730148,-89.3984019,madison avenue,"624 University Ave, Madison, WI 53715",624.0,53715.0,43.0733,-89.3969,0
5724,qou7HXpSiGdNzSmxhf59XA,17501788,4b cafe,"787 N Main St, Ste 106",787.0,53575.0,42.9383678,-89.3835669,pancake cafe,"6220 Nesbitt Rd Ste B, Fitchburg, WI 53719",6220.0,53719.0,43.0099,-89.4795,0
32669,6nLuU3av6aQiLVXHNWLbew,17502806,sugar river pizza,"1019 River St, Ste 5",1019.0,53508.0,42.8753193,-89.5329802,spartan pizza,"5813 Main St, Mc Farland, WI 53558",5813.0,53558.0,43.0146,-89.2887,0
70015,kVXyz0mYd7NaGuGdM_VMeQ,17504106,asian sweet bakery,1017 S Park St,1017.0,53715.0,43.055992,-89.3976859,asian sweet bakery,"1017 S Park St, Madison, WI 53715",1017.0,53715.0,43.055992,-89.3976859,1
61840,M4f1JtOp03-gv8xR5JtV8Q,17503813,papa john's pizza,6619 McKee Rd,6619.0,53719.0,43.0146933,-89.4982112,topper's pizza,"6291 McKee Rd., Suite F, Fitchburg, WI 53719",6291.0,53719.0,43.0155595,-89.47718,0
31275,RCfpKRSP5o04gdzy7Vhnqw,17502776,jodi's bar and grill,1821 Main St,1821.0,53528.0,43.1140164634,-89.6505199,silver fox bar,"118 E Main St, Marshall, WI 53559",118.0,53559.0,43.1671,-89.0635,0
41171,2vDSveTk2Wyp7XoNHjK1yg,17503048,laz bistro and bar,419 E Main St,419.0,53589.0,42.9166406,-89.215992,frontier bar,"109 N Main St, Poynette, WI 53955",109.0,53955.0,43.3908,-89.4029,0
15157,70nmPKnAufzeKfRNVE0-Pg,17502197,hong kong wok,"702 N Midvale Blvd, Ste 120",702.0,53705.0,43.0733473,-89.4530332,flaming wok,"4237 Lien Rd Ste H, Madison, WI 53704",4237.0,53704.0,43.1209,-89.3101,0
61891,HnhlGIi4qUOt3apovg-zdQ,17503813,topper's pizza,6291 Mckee Rd,6291.0,53719.0,43.015429,-89.480196,topper's pizza,"6291 McKee Rd., Suite F, Fitchburg, WI 53719",6291.0,53719.0,43.0155595,-89.47718,1
22770,HaRB76OqxMZ28snURM9tFw,17502483,papa bear's bbq,4527 Cottage Grove Rd,4527.0,53716.0,43.084097,-89.3045168,papa murphy's pizza,"4664 Cottage Grove Rd, Madison, WI 53716",4664.0,53716.0,43.0843,-89.3017,0
70658,EfHOn1Cc9q7aj02ijzrU1A,17504128,la rosita mexican buffet,6001 Monona Dr,6001.0,53716.0,43.0544889,-89.32595,la rosita,"6005 Monona Dr, Monona, WI 53716",6005.0,53716.0,43.0546552,-89.3255237,1
67601,CpPJ2UKAxDLwj95-HNFPHg,17504026,barriques market,"5957 McKee Rd, Ste 5",5957.0,53719.0,43.0149710513,-89.4576370192,halal international meat market,"745 S Gammon Rd, Madison, WI 53711",745.0,53711.0,43.0488176644,-89.5030852407,0
2125,EgbWvXVyExSqcFx9r7fZug,17501644,culver's,2523 Main St,2523.0,53528.0,43.111364,-89.6441679,culver's,"2523 Main St, Cross Plains, WI 53528",2523.0,53528.0,43.1112,-89.644,1
45799,NiBzh0kHusvH5rdnpm7yVw,17503228,bandung indonesian restaurant,"600 Williamson St, Ste M",600.0,53703.0,43.076604,-89.3745656,dragon city chinese restaurant,"600 W Verona Ave, Verona, WI 53593",600.0,53593.0,42.9886,-89.545,0
59210,uXZ4Of7CV77SmKIjya3y_A,17503721,varsity bar & grill,1205 W Main St,1205.0,53590.0,43.1797865,-89.233109,the rigby pub & grill,"119 E Main St, Madison, WI 53703",119.0,53703.0,43.0750283,-89.3811811,0
43413,KHZKC-xiTAC8yoxRC_95Tg,17503137,pizza hut,633 S Main St,633.0,53532.0,43.2393613,-89.342612,pizza pit,"1060 W Main St, Stoughton, WI 53589",1060.0,53589.0,42.9169,-89.2324,0
32771,VYpXvGPkx2k0lZlGry3HQw,17502813,coach's club,1200 Main St,1200.0,53528.0,43.1142288,-89.6586593,varsity club,"627 W Main St, Merrimac, WI 53561",627.0,53561.0,43.3731,-89.6372,0
12459,xOx-N9G7AteZTnZfVFfNHA,17502087,christy's landing,2952 Waubesa Ave,2952.0,53711.0,43.0061927664,-89.3347907211,christy's landing,"2952 Waubesa Ave, Madison, WI 53711",2952.0,53711.0,43.0065929,-89.3368292,1
46618,FDSl04CJhMXhVT5rT7-pjg,17503251,j & m bar and grill,127 W Main St,127.0,53508.0,42.860019,-89.536184,canopy bar,"1212 Main St, Waterloo, WI 53594",1212.0,53594.0,43.1978,-88.9747,0
24093,FhHD0Y_TPysnHOfB8uS6eQ,17502507,pitcher's pub,323 W Beltline Hwy,323.0,53713.0,43.0365968,-89.388805,pitcher's pub,"323 W Beltline Hwy, Madison, WI 53713",323.0,53713.0,43.0376,-89.3876,1
67024,cVPUJEJqjSR1oHjl2JPHqg,17503996,red rock saloon,322 W Johnson St,322.0,53703.0,43.074154,-89.391323,red rock saloon,"322 W Johnson St, Madison, WI 53703",322.0,53703.0,43.074154,-89.391323,1
71029,eRIgaUA3JFOxKXKH4mvshQ,17757960,norske nook restaurant & bakery,100 East Holum St,100.0,53532.0,43.24795,-89.343562,norske nook,"100 E Holum Street, DeForest, WI 53532",100.0,53532.0,43.247925,-89.343284,1
464,IXXERocY1bqGwRllcy8J2w,17501569,sophia's bakery & cafe,"831 E Johnson St, Ste 4",831.0,53703.0,43.0838052,-89.3768109,corner cafe,"30 W Main St, Belleville, WI 53508",30.0,53508.0,42.8595,-89.5324,0
9214,NiBzh0kHusvH5rdnpm7yVw,17501914,bandung indonesian restaurant,"600 Williamson St, Ste M",600.0,53703.0,43.076604,-89.3745656,lucy's family restaurant,"610 Corner St, Lodi, WI 53555",610.0,53555.0,43.3079,-89.5262,0
68307,HOCeog5qhTFVTJnHldF8kw,17504054,fink's cafe,204 W Main St,204.0,53572.0,43.008818,-89.740633,main street cafe,"5 W Main St, Evansville, WI 53536",5.0,53536.0,42.78034,-89.2993,0
73590,CRD6zKJSRbkiwTPYMIaavA,17826347,africana restaurant and lounge,2701 Atwood Ave,2701.0,53704.0,43.0937705,-89.3452006,food fight restaurant group,"2002 Atwood Ave, Madison, WI 53704",2002.0,53704.0,43.092265,-89.3547136,0
3418,0jy1V32K1F_7bM8mu3nK5w,17501692,main street pub & grill,120 E Main St,120.0,53572.0,43.0086740632,-89.7376195907,deerfield pub & grill,"15 N Main St, Deerfield, WI 53531",15.0,53531.0,43.053,-89.0755,0
54120,hFDC6D4Tea3badPl2d9KkA,17503527,falling water cafe,"Marriott-Madison West, 1313 John Q Hammons Dr",1313.0,53562.0,43.0875586,-89.5227535,grandview cafe,"1 John Nolen Dr, Madison, WI 53703",1.0,53703.0,43.072917,-89.378665,0
3171,l7A73zaNzDyWJJ0ixc2ymw,17501683,pizza pit,330 W Main St,330.0,53590.0,43.1832772,-89.2185271,pizza hut,"633 S Main St, De Forest, WI 53532",633.0,53532.0,43.2414,-89.3435,0
55473,vzqzoa-plufwTsQUwW_s6Q,17503573,pho nam noodle house,"610 Junction Rd, Ste 109",610.0,53717.0,43.0734853,-89.5267274,pho nam,"610 Junction Rd Suite 109, Madison, WI 53717",610.0,53717.0,43.073014,-89.52637,1
43913,ews1zoLozRjcTIQNthvPZg,17503181,kfc,1070 Emerald Terrace,1070.0,53590.0,43.1866,-89.2315,kfc,"1070 Emerald Ter, Sun Prairie, WI 53590",1070.0,53590.0,43.1867,-89.2316,1
37633,2J0mx9CAcP01RpwQkdBcGw,17502970,taco bell,2169 Deming Way Suite 100,2169.0,53562.0,43.09677,-89.5235,taco bell,"100 E Broadway, Monona, WI 53716",100.0,53716.0,43.0477,-89.3245,0
64346,lzD08INl2DDUcDGHXsMkmA,17503922,cafe assisi,"254 W. Gilman Street, Second Floor",254.0,53703.0,43.0751696,-89.3935408,crescendo espresso bar + music cafe,"1859 Monroe Street, Madison, WI 53711",1859.0,53711.0,43.0647844,-89.4171932,0
15651,qd1QvLRMJMPRQIdhyWmhRg,17502233,china wok,"204 S Century Ave, Unit A6",204.0,53597.0,43.1895553,-89.4614377,great china,"619 N Sherman Ave, Madison, WI 53704",619.0,53704.0,43.1087,-89.3637,0
44707,1Hhc1h5TETqtVMgasiimuQ,17503206,subway,1429 W Main St,1429.0,53590.0,43.1784005,-89.2377158,subway,"1429 W Main St, Sun Prairie, WI 53590",1429.0,53590.0,43.1787,-89.2372,1
46860,ISE6RcXsgPO1MgxypROEYg,17503266,northside family restaurant,1201 N Sherman Ave,1201.0,53704.0,43.1128465,-89.3637702,china wok chinese restaurant,"204 S Century Ave Ste A6, Waunakee, WI 53597",204.0,53597.0,43.1907,-89.4616,0
64202,pzLXZ0qeiRilQ3vM-gS1wg,17503913,avanti italian restaurant,119 S Main St,119.0,53593.0,42.9897108,-89.5331838,big sky restaurant,"176 East Main Street, Stoughton, WI 53589",176.0,53589.0,42.9167644,-89.21944,0
73545,cxyDANKI4ptp9VdbgEtCtg,17826344,circ,1 W Dayton St,1.0,53703.0,43.0756129,-89.3865836,circ,"1 W Dayton St, Madison, WI 53703",1.0,53703.0,43.0756129,-89.3865836,1
34823,KW5qy8mKBpgd2xL_5w7Mzg,17502869,topper's pizza,4128 E Washington Ave,4128.0,53704.0,43.1254222,-89.312196,pizza hut,"6771 University Ave Ste 101, Middleton, WI 53562",6771.0,53562.0,43.0969,-89.4985,0
2851,NiBzh0kHusvH5rdnpm7yVw,17501673,bandung indonesian restaurant,"600 Williamson St, Ste M",600.0,53703.0,43.076604,-89.3745656,de forest family restaurant,"505 W North St, De Forest, WI 53532",505.0,53532.0,43.2526,-89.3532,0
57453,IXXERocY1bqGwRllcy8J2w,17503653,sophia's bakery & cafe,"831 E Johnson St, Ste 4",831.0,53703.0,43.0838052,-89.3768109,jade mountain cafe,"2611 E. Johnson St, Madison, WI 53704",2611.0,53704.0,43.103192,-89.349841,0
